{"type":"FeatureCollection","features":[{"type":"Feature","properties":{"code":"01","name":"Stockholms län"},"geometry":{"type":"MultiPolygon","coordinates":[[[[17.24034,59.24219],[17.25416,59.19043],[17.30393,59.14157],[17.28902,59.05012],[17.36402,58.99215],[17.52157,58.99166],[17.52531,58.9678],[17.60014,58.9478],[17.61895,58.90485],[17.63698,58.9431],[17.65799,58.94064],[17.67615,58.93521],[17.68701,58.94069],[17.69522,58.95933],[17.69301,58.99029],[17.68863,59.03877],[17.686,59.05161],[17.67231,59.05728],[17.65689,59.05156],[17.65327,59.03382],[17.64814,59.0205],[17.63288,59.00234],[17.62152,58.99821],[17.61507,59.01179],[17.61497,59.05211],[17.63325,59.06786],[17.63186,59.07394],[17.61812,59.07894],[17.61832,59.088],[17.62512,59.09155],[17.65324,59.10138],[17.64854,59.10651],[17.65493,59.11243],[17.66384,59.11089],[17.67366,59.11203],[17.67997,59.11693],[17.6809,59.12666],[17.67593,59.14256],[17.65924,59.1577],[17.65687,59.16682],[17.66704,59.17132],[17.67387,59.16814],[17.67956,59.15996],[17.68564,59.14907],[17.69172,59.14266],[17.70114,59.11479],[17.6897,59.0969],[17.68901,59.08314],[17.69143,59.06796],[17.70548,59.06597],[17.73573,59.07136],[17.73754,59.08342],[17.73222,59.10168],[17.73805,59.10828],[17.77425,59.12092],[17.77254,59.1102],[17.77766,59.09664],[17.76443,59.09358],[17.75747,59.08197],[17.76094,59.07114],[17.74911,59.06267],[17.73754,59.05014],[17.7366,59.04043],[17.748,59.02471],[17.75676,58.99561],[17.74735,58.98507],[17.74592,58.97703],[17.75726,58.96771],[17.7536,58.93015],[17.74722,58.92424],[17.75395,58.91401],[17.77654,58.90141],[17.80056,58.87734],[17.82171,58.85065],[17.81757,58.83495],[17.80369,58.82451],[17.78579,58.81214],[17.78548,58.8024],[17.84861,58.81138],[17.87535,58.86018],[17.89093,58.86821],[17.90694,58.89271],[17.92948,58.90562],[17.95218,58.91349],[17.96354,58.93608],[17.95593,58.96852],[17.97395,58.99297],[17.97621,59.00232],[17.98377,59.0129],[17.99031,59.0077],[17.99389,58.99854],[18.00233,58.99901],[18.00726,59.00292],[18.00559,59.0117],[17.99793,59.0371],[18.00003,59.04275],[18.0126,59.04145],[18.01489,59.03265],[18.02622,59.02969],[18.03391,59.03522],[18.03548,59.04392],[18.04225,59.05283],[18.05936,59.05577],[18.08275,59.05688],[18.09464,59.05927],[18.10092,59.06953],[18.10867,59.0754],[18.13694,59.0794],[18.14259,59.08395],[18.18887,59.09287],[18.20645,59.09948],[18.21094,59.10509],[18.20302,59.10932],[18.21169,59.1175],[18.22501,59.12085],[18.24785,59.12228],[18.25708,59.118],[18.25787,59.11361],[18.24823,59.10848],[18.23845,59.10773],[18.22774,59.10465],[18.22057,59.09845],[18.22844,59.09353],[18.22547,59.09025],[18.21539,59.08682],[18.19909,59.07984],[18.19902,59.07345],[18.20176,59.06901],[18.21358,59.07072],[18.22811,59.07909],[18.25209,59.0852],[18.3009,59.09333],[18.31795,59.10095],[18.31551,59.10773],[18.26938,59.10659],[18.28455,59.12031],[18.31515,59.12724],[18.32846,59.13025],[18.34323,59.12919],[18.35165,59.1293],[18.37645,59.14175],[18.38608,59.14114],[18.39007,59.13633],[18.4004,59.13605],[18.41245,59.13942],[18.42667,59.14442],[18.449,59.16868],[18.44098,59.17226],[18.42507,59.16934],[18.41055,59.16738],[18.37889,59.17384],[18.36547,59.18137],[18.37524,59.19287],[18.3961,59.19903],[18.40398,59.20522],[18.38711,59.22214],[18.37176,59.22423],[18.35717,59.22731],[18.34029,59.23852],[18.2886,59.25837],[18.26471,59.26],[18.25742,59.26456],[18.25453,59.26766],[18.25875,59.27058],[18.27639,59.27113],[18.31092,59.26586],[18.33075,59.26298],[18.34152,59.26604],[18.33775,59.27287],[18.32436,59.27525],[18.29868,59.27828],[18.29494,59.28543],[18.28694,59.29505],[18.27166,59.29814],[18.25199,59.29697],[18.2136,59.29728],[18.20707,59.30284],[18.20433,59.31903],[18.20503,59.33112],[18.19795,59.33197],[18.17842,59.32641],[18.14298,59.31823],[18.12053,59.31543],[18.10246,59.3171],[18.07994,59.31946],[18.0666,59.32249],[18.06671,59.32424],[18.07755,59.32758],[18.07053,59.33278],[18.09122,59.3333],[18.10843,59.3238],[18.12449,59.32172],[18.13738,59.32644],[18.13747,59.33316],[18.12427,59.34357],[18.09752,59.35533],[18.06035,59.37799],[18.08795,59.39328],[18.09577,59.40512],[18.09686,59.4192],[18.10127,59.42549],[18.11634,59.43183],[18.10965,59.43637],[18.14218,59.44889],[18.15382,59.4514],[18.15727,59.44124],[18.16129,59.43642],[18.17303,59.43613],[18.1973,59.44258],[18.20287,59.43975],[18.20315,59.43352],[18.20304,59.42395],[18.19504,59.42247],[18.17516,59.42599],[18.16856,59.41944],[18.16529,59.40775],[18.16348,59.39738],[18.18525,59.39347],[18.20081,59.3924],[18.21472,59.38835],[18.27169,59.38991],[18.2942,59.39269],[18.30269,59.39818],[18.29473,59.40276],[18.27247,59.40233],[18.26898,59.40612],[18.28109,59.40916],[18.28557,59.41409],[18.2717,59.42419],[18.26326,59.43047],[18.24551,59.42958],[18.23447,59.4302],[18.22881,59.43505],[18.23561,59.44025],[18.25271,59.44116],[18.26923,59.4367],[18.2911,59.43949],[18.30077,59.44395],[18.30754,59.4515],[18.30236,59.45768],[18.28951,59.4597],[18.27746,59.46304],[18.28537,59.46922],[18.29981,59.46951],[18.30901,59.46424],[18.31654,59.46135],[18.32857,59.46372],[18.34164,59.46338],[18.34744,59.45717],[18.36391,59.45808],[18.37611,59.45607],[18.39005,59.45771],[18.41098,59.47431],[18.4104,59.48036],[18.41674,59.48422],[18.43666,59.48638],[18.45385,59.4933],[18.46705,59.50505],[18.47656,59.50781],[18.51793,59.52987],[18.53638,59.5307],[18.54513,59.53785],[18.5774,59.54939],[18.6082,59.5596],[18.62987,59.56504],[18.66726,59.57737],[18.72423,59.62247],[18.74148,59.67571],[18.85951,59.70614],[19.01506,59.69688],[19.07539,59.71553],[19.06861,59.75986],[18.96963,59.77721],[18.96973,59.82096],[19.04132,59.81864],[19.08446,59.87154],[19.02167,59.90047],[18.92878,59.9373],[18.8598,60.00311],[18.82007,60.09196],[18.78154,60.10782],[18.79913,60.17198],[18.72124,60.21286],[18.70843,60.16289],[18.67602,60.13088],[18.61015,60.14158],[18.51103,60.15487],[18.48907,60.10562],[18.46247,60.05673],[18.38175,60.04532],[18.44192,60.00372],[18.40307,59.99585],[18.37379,59.86891],[18.2974,59.83298],[18.13985,59.81418],[18.08911,59.73617],[18.06772,59.73652],[18.04633,59.73401],[18.03676,59.73693],[18.00922,59.72617],[17.9881,59.72599],[17.95504,59.71265],[17.93736,59.70769],[17.91755,59.70714],[17.83822,59.6918],[17.84344,59.68497],[17.82384,59.68003],[17.81316,59.68498],[17.79149,59.68545],[17.76847,59.67924],[17.7552,59.66507],[17.73626,59.6665],[17.73096,59.67939],[17.70554,59.68195],[17.6926,59.69096],[17.66506,59.69222],[17.63558,59.69502],[17.63978,59.67595],[17.61149,59.66915],[17.58259,59.65597],[17.591,59.64986],[17.57567,59.6383],[17.56111,59.63725],[17.54518,59.62884],[17.53119,59.61266],[17.53416,59.59513],[17.57239,59.57587],[17.56692,59.56198],[17.56849,59.55546],[17.57185,59.54933],[17.56047,59.53277],[17.54564,59.52836],[17.53121,59.52126],[17.52739,59.5153],[17.53209,59.50949],[17.56801,59.48758],[17.57598,59.48877],[17.57074,59.4956],[17.57656,59.50186],[17.58907,59.50261],[17.59648,59.49775],[17.59587,59.4776],[17.601,59.46943],[17.6173,59.46909],[17.6218,59.47505],[17.61528,59.48225],[17.61194,59.48836],[17.62588,59.49714],[17.64669,59.49569],[17.66946,59.48748],[17.68781,59.48104],[17.68882,59.47127],[17.69809,59.4657],[17.69969,59.44852],[17.71632,59.44481],[17.72989,59.44316],[17.72929,59.43713],[17.7396,59.43557],[17.75225,59.44436],[17.75101,59.46488],[17.75984,59.4815],[17.77239,59.48256],[17.78267,59.46755],[17.79845,59.4728],[17.80681,59.467],[17.80356,59.4607],[17.80008,59.45842],[17.79581,59.45516],[17.7757,59.42402],[17.77374,59.41095],[17.77684,59.40282],[17.78675,59.39723],[17.79701,59.38904],[17.83103,59.37036],[17.85698,59.35632],[17.89488,59.34436],[17.90248,59.33579],[17.91301,59.3305],[17.93172,59.32872],[17.94825,59.31859],[17.9607,59.31931],[17.97535,59.32232],[17.98233,59.3329],[17.98407,59.34328],[17.98842,59.34721],[17.99329,59.34609],[17.99407,59.34564],[18.01123,59.3349],[18.02895,59.3301],[18.04593,59.33036],[18.06767,59.33253],[18.06401,59.32452],[18.06177,59.3231],[18.03846,59.32147],[18.01589,59.31765],[17.99308,59.31752],[17.98544,59.31301],[17.96176,59.31087],[17.94118,59.30699],[17.92189,59.30306],[17.90486,59.29573],[17.88082,59.2899],[17.87586,59.2796],[17.88258,59.27328],[17.88247,59.2446],[17.87218,59.237],[17.86721,59.24586],[17.85852,59.25614],[17.84097,59.26259],[17.80449,59.26206],[17.78091,59.2604],[17.75924,59.26474],[17.73668,59.25616],[17.71643,59.26603],[17.7084,59.27695],[17.68383,59.28521],[17.65616,59.2885],[17.65488,59.2818],[17.63468,59.28156],[17.62397,59.28514],[17.60407,59.28119],[17.59806,59.27257],[17.60337,59.26675],[17.61074,59.26223],[17.61428,59.25633],[17.61979,59.23415],[17.63233,59.21574],[17.62905,59.20841],[17.61494,59.2104],[17.60732,59.21895],[17.59045,59.24014],[17.57803,59.26023],[17.56647,59.26853],[17.54441,59.26898],[17.46583,59.29207],[17.43814,59.30975],[17.42511,59.30966],[17.39988,59.31889],[17.38969,59.32144],[17.38377,59.32828],[17.36657,59.32524],[17.3685,59.31748],[17.3784,59.31158],[17.37679,59.28573],[17.38074,59.27894],[17.41464,59.2504],[17.41781,59.24227],[17.3848,59.25098],[17.36194,59.25712],[17.33137,59.25703],[17.30234,59.25186],[17.28475,59.26796],[17.24034,59.24219]]],[[[18.35947,59.3587],[18.34536,59.36097],[18.32439,59.35997],[18.30696,59.36176],[18.26447,59.36085],[18.25976,59.35392],[18.25088,59.35045],[18.2267,59.34402],[18.2221,59.3206],[18.22252,59.31286],[18.22335,59.3088],[18.23469,59.30515],[18.25859,59.30353],[18.28005,59.30902],[18.2937,59.31438],[18.29906,59.3213],[18.30481,59.33728],[18.32997,59.33494],[18.34325,59.33145],[18.36097,59.33244],[18.37111,59.33015],[18.36316,59.3233],[18.34694,59.31835],[18.34312,59.31341],[18.34994,59.29944],[18.33976,59.29568],[18.33332,59.29081],[18.34648,59.28642],[18.37825,59.28524],[18.39792,59.26993],[18.41423,59.26477],[18.42429,59.25071],[18.44929,59.2423],[18.47109,59.23968],[18.48226,59.22458],[18.52442,59.21836],[18.53533,59.22277],[18.54843,59.22878],[18.56508,59.23201],[18.56643,59.24307],[18.59231,59.24738],[18.60346,59.25345],[18.62004,59.25599],[18.6391,59.25748],[18.63587,59.26294],[18.6851,59.29212],[18.68053,59.29729],[18.6104,59.28855],[18.54086,59.28414],[18.53951,59.27847],[18.55189,59.27308],[18.5473,59.26749],[18.53899,59.26872],[18.50797,59.27598],[18.49904,59.28296],[18.47654,59.29063],[18.45167,59.29502],[18.4214,59.29249],[18.41232,59.2981],[18.41858,59.30702],[18.43716,59.32096],[18.43963,59.32527],[18.43359,59.32913],[18.4471,59.33314],[18.44727,59.34018],[18.41592,59.35616],[18.39485,59.3601],[18.35947,59.3587]]],[[[18.46264,59.39759],[18.46744,59.38872],[18.46704,59.37999],[18.46007,59.37077],[18.45588,59.36314],[18.45857,59.35837],[18.46451,59.3535],[18.46916,59.34867],[18.46877,59.33994],[18.45728,59.3147],[18.45628,59.30632],[18.46946,59.30225],[18.4837,59.30153],[18.5181,59.28982],[18.53795,59.29229],[18.58728,59.29627],[18.61174,59.29927],[18.62503,59.30663],[18.63359,59.31781],[18.63464,59.32619],[18.6268,59.3365],[18.60541,59.34283],[18.57612,59.3487],[18.55436,59.34663],[18.54934,59.3535],[18.56911,59.35529],[18.59006,59.35571],[18.60163,59.35437],[18.61215,59.35508],[18.62183,59.35951],[18.62262,59.36587],[18.61548,59.37146],[18.60251,59.37216],[18.58429,59.36731],[18.51918,59.38997],[18.50511,59.41389],[18.49958,59.41675],[18.47897,59.41933],[18.46533,59.42004],[18.45452,59.41697],[18.4449,59.41858],[18.43614,59.41647],[18.4382,59.4117],[18.44471,59.40615],[18.45619,59.40381],[18.46264,59.39759]]],[[[17.78679,59.32598],[17.77625,59.33125],[17.77831,59.33894],[17.78099,59.35265],[17.77578,59.36588],[17.76495,59.37519],[17.76216,59.37996],[17.73502,59.39568],[17.73081,59.39274],[17.73144,59.38601],[17.72336,59.38349],[17.71318,59.38607],[17.70206,59.39908],[17.70394,59.40508],[17.71402,59.40789],[17.72508,59.40766],[17.73056,59.41022],[17.70946,59.42144],[17.69094,59.42587],[17.67947,59.42208],[17.66303,59.42781],[17.64335,59.44066],[17.62869,59.44432],[17.61388,59.45371],[17.59979,59.44997],[17.5982,59.44697],[17.60164,59.44187],[17.60453,59.43105],[17.63064,59.40329],[17.63691,59.38702],[17.65434,59.36448],[17.67904,59.34345],[17.69706,59.32761],[17.71333,59.32759],[17.72005,59.32308],[17.73329,59.3117],[17.76084,59.3074],[17.78133,59.31029],[17.7899,59.31784],[17.78679,59.32598]]],[[[17.61314,59.36333],[17.61767,59.35618],[17.61174,59.34858],[17.62453,59.34595],[17.62839,59.33175],[17.62447,59.32479],[17.62634,59.31702],[17.63233,59.31151],[17.64809,59.30614],[17.68555,59.29627],[17.72684,59.27924],[17.76394,59.27944],[17.77613,59.27782],[17.78419,59.27361],[17.81309,59.26994],[17.83966,59.27538],[17.8432,59.27833],[17.83936,59.28547],[17.80895,59.29356],[17.80998,59.29723],[17.79773,59.29852],[17.77315,59.29368],[17.75966,59.29532],[17.73554,59.30156],[17.70013,59.31242],[17.68146,59.32122],[17.65369,59.32383],[17.63647,59.36183],[17.59327,59.42926],[17.58087,59.42952],[17.56299,59.42687],[17.54838,59.42448],[17.53268,59.41708],[17.53567,59.40693],[17.54068,59.39776],[17.54396,59.39097],[17.55403,59.38706],[17.56395,59.38821],[17.57249,59.38904],[17.58814,59.36787],[17.59939,59.36261],[17.61314,59.36333]]],[[[18.57895,59.45621],[18.59199,59.45584],[18.5984,59.46004],[18.60001,59.4731],[18.59312,59.48607],[18.5993,59.49363],[18.60887,59.49672],[18.62053,59.49571],[18.63674,59.49962],[18.64655,59.50976],[18.66264,59.52308],[18.67264,59.52952],[18.68857,59.53108],[18.68783,59.53547],[18.67639,59.53848],[18.67658,59.55025],[18.66277,59.54997],[18.66189,59.55337],[18.6725,59.55944],[18.66105,59.56247],[18.64462,59.55689],[18.63482,59.55212],[18.59056,59.53926],[18.58478,59.52967],[18.56883,59.52273],[18.56173,59.51822],[18.56229,59.51215],[18.55248,59.50705],[18.55269,59.50334],[18.56897,59.50255],[18.57589,59.50034],[18.57037,59.49277],[18.55959,59.485],[18.54692,59.48839],[18.54446,59.49517],[18.53217,59.49652],[18.52003,59.4935],[18.51374,59.48493],[18.52248,59.48133],[18.52525,59.47722],[18.52333,59.46685],[18.52646,59.46038],[18.53942,59.45396],[18.54637,59.44671],[18.54364,59.43502],[18.54484,59.42893],[18.56068,59.43017],[18.57227,59.43925],[18.57376,59.45132],[18.57895,59.45621]]],[[[18.40578,59.01051],[18.41704,59.01827],[18.42582,59.05467],[18.45259,59.06773],[18.45416,59.08113],[18.47806,59.09156],[18.48497,59.10079],[18.46677,59.1218],[18.46531,59.12049],[18.4112,59.09004],[18.37071,59.08138],[18.36581,59.07815],[18.37401,59.07625],[18.37488,59.07253],[18.34558,59.05416],[18.34892,59.04936],[18.36199,59.05068],[18.36484,59.04725],[18.3599,59.04368],[18.35034,59.03924],[18.34125,59.03343],[18.3451,59.0219],[18.36372,59.01535],[18.38809,59.0194],[18.39421,59.01082],[18.40578,59.01051]]],[[[18.97218,59.64139],[18.91733,59.65524],[18.85655,59.63877],[18.8077,59.59869],[18.75446,59.57752],[18.77241,59.56906],[18.85765,59.59933],[18.90549,59.59465],[18.91402,59.6195],[18.97025,59.62084],[18.97218,59.64139]]],[[[18.22081,58.9149],[18.23337,58.91793],[18.24245,58.92409],[18.25501,58.92712],[18.27474,58.92493],[18.30723,58.93314],[18.29698,58.93947],[18.28217,58.94524],[18.29012,58.95275],[18.34201,58.96685],[18.35162,58.97196],[18.35287,58.9827],[18.34553,58.98625],[18.33341,58.98187],[18.32225,58.97443],[18.28952,58.96455],[18.2718,58.9677],[18.21115,58.94977],[18.1997,58.94536],[18.17146,58.93465],[18.14713,58.92418],[18.14749,58.91576],[18.15663,58.91688],[18.17191,58.9212],[18.18821,58.92885],[18.19355,58.92467],[18.19399,58.91694],[18.22081,58.9149]]],[[[18.07356,58.97105],[18.08307,58.97552],[18.09058,58.98542],[18.10055,58.9882],[18.10851,58.98431],[18.11151,58.97617],[18.12141,58.97222],[18.13899,58.97379],[18.15046,58.97854],[18.13891,58.99094],[18.13657,58.99907],[18.14616,59.00421],[18.15745,59.00124],[18.16435,59.00508],[18.1633,59.01318],[18.17254,59.02102],[18.18744,59.02131],[18.20142,59.02498],[18.20594,59.03092],[18.19367,59.03089],[18.16184,59.0354],[18.13388,59.0277],[18.10171,59.02884],[18.09049,59.02677],[18.08133,59.01959],[18.08115,59.01793],[18.08348,59.00946],[18.08157,59.0038],[18.05911,58.99292],[18.05608,58.98862],[18.05812,58.97749],[18.05214,58.9699],[18.05844,58.9684],[18.07356,58.97105]]],[[[18.7209,59.36369],[18.69542,59.37385],[18.68437,59.36914],[18.66853,59.378],[18.63716,59.37251],[18.66478,59.34818],[18.67153,59.33454],[18.67079,59.32346],[18.66463,59.30548],[18.67217,59.30324],[18.68284,59.30529],[18.70858,59.31294],[18.72436,59.3192],[18.73144,59.32875],[18.7319,59.34252],[18.73005,59.35367],[18.7209,59.36369]]],[[[17.48797,59.37798],[17.49638,59.37008],[17.49294,59.36109],[17.50305,59.35047],[17.51921,59.34174],[17.53085,59.34084],[17.53988,59.34704],[17.53509,59.35855],[17.53824,59.36453],[17.54468,59.37045],[17.54281,59.37856],[17.53479,59.38342],[17.52172,59.40452],[17.50934,59.41183],[17.50545,59.4193],[17.49191,59.42125],[17.47121,59.41628],[17.46923,59.40893],[17.47074,59.40386],[17.47007,59.39648],[17.46764,59.39115],[17.46987,59.38708],[17.48797,59.37798]]],[[[18.10584,59.38975],[18.10472,59.3854],[18.10754,59.3813],[18.11964,59.37864],[18.12628,59.37377],[18.12617,59.36672],[18.13006,59.36057],[18.14372,59.34847],[18.16611,59.34454],[18.18821,59.34399],[18.20561,59.34792],[18.2178,59.35197],[18.22367,59.35787],[18.21825,59.3617],[18.21668,59.36511],[18.22288,59.36797],[18.23856,59.36824],[18.24454,59.36927],[18.24265,59.37554],[18.22916,59.37757],[18.21452,59.37491],[18.2036,59.37654],[18.17522,59.37961],[18.14858,59.38666],[18.12882,59.39086],[18.11332,59.39225],[18.10584,59.38975]]],[[[17.8906,59.33438],[17.87944,59.33363],[17.87011,59.33788],[17.85645,59.35095],[17.84185,59.35499],[17.82083,59.35345],[17.81451,59.34887],[17.80635,59.33898],[17.80833,59.3329],[17.83397,59.31584],[17.84662,59.30547],[17.86068,59.30314],[17.87707,59.31049],[17.88229,59.32011],[17.88505,59.32476],[17.8912,59.32765],[17.8906,59.33438]]],[[[18.85126,59.4072],[18.84033,59.39845],[18.83606,59.39085],[18.84546,59.38787],[18.85991,59.39348],[18.86444,59.39807],[18.86975,59.40361],[18.88491,59.40954],[18.90108,59.41812],[18.90321,59.42915],[18.91302,59.42919],[18.92282,59.43393],[18.92245,59.44101],[18.91931,59.44682],[18.90505,59.44793],[18.89129,59.44767],[18.87371,59.44351],[18.85837,59.43625],[18.85093,59.42941],[18.85134,59.42267],[18.85409,59.41385],[18.85126,59.4072]]],[[[18.73671,59.28824],[18.72434,59.28323],[18.71429,59.27075],[18.7144,59.26133],[18.72476,59.26103],[18.74201,59.26354],[18.75648,59.25975],[18.77151,59.26535],[18.77713,59.27863],[18.80013,59.29039],[18.77989,59.30007],[18.76605,59.2988],[18.73671,59.28824]]],[[[18.9351,59.39387],[18.95529,59.40803],[18.95177,59.41588],[18.93442,59.4181],[18.92407,59.41405],[18.92048,59.40676],[18.90619,59.40249],[18.91261,59.39659],[18.9107,59.37746],[18.91457,59.3723],[18.93145,59.37145],[18.93931,59.37658],[18.9351,59.39387]]],[[[18.67613,59.20529],[18.65295,59.18612],[18.65018,59.17949],[18.66657,59.18607],[18.68268,59.1903],[18.70273,59.19476],[18.72048,59.19659],[18.73203,59.20062],[18.73836,59.2095],[18.72486,59.21059],[18.69879,59.20462],[18.70478,59.21622],[18.69407,59.21888],[18.68355,59.2128],[18.67613,59.20529]]],[[[18.90455,59.3558],[18.89576,59.35842],[18.88783,59.35767],[18.8745,59.35067],[18.86842,59.34413],[18.86338,59.3305],[18.85914,59.31819],[18.85188,59.31236],[18.88478,59.31001],[18.8938,59.3141],[18.88319,59.32249],[18.88129,59.32793],[18.89324,59.33933],[18.89413,59.34603],[18.9065,59.3507],[18.90455,59.3558]]],[[[18.31258,59.43288],[18.30558,59.42332],[18.31742,59.4183],[18.33692,59.42854],[18.36011,59.43129],[18.35859,59.43503],[18.3446,59.43842],[18.33234,59.44547],[18.32375,59.44468],[18.31407,59.44024],[18.31258,59.43288]]]]}},{"type":"Feature","properties":{"code":"03","name":"Uppsala län"},"geometry":{"type":"Polygon","coordinates":[[[17.36606,59.61224],[17.39846,59.61963],[17.40421,59.60306],[17.41416,59.58944],[17.44175,59.56807],[17.47395,59.54694],[17.50748,59.53384],[17.52651,59.53413],[17.54002,59.54561],[17.55257,59.56047],[17.56692,59.56198],[17.57239,59.57587],[17.53416,59.59513],[17.53119,59.61266],[17.54518,59.62884],[17.56111,59.63725],[17.57567,59.6383],[17.591,59.64986],[17.58259,59.65597],[17.61149,59.66915],[17.63978,59.67595],[17.63558,59.69502],[17.66506,59.69222],[17.6926,59.69096],[17.70554,59.68195],[17.73096,59.67939],[17.73626,59.6665],[17.7552,59.66507],[17.76847,59.67924],[17.79149,59.68545],[17.81316,59.68498],[17.82384,59.68003],[17.84344,59.68497],[17.83822,59.6918],[17.91755,59.70714],[17.93736,59.70769],[17.95504,59.71265],[17.9881,59.72599],[18.00922,59.72617],[18.03676,59.73693],[18.04633,59.73401],[18.06772,59.73652],[18.08911,59.73617],[18.13985,59.81418],[18.2974,59.83298],[18.37379,59.86891],[18.40307,59.99585],[18.44192,60.00372],[18.38175,60.04532],[18.46247,60.05673],[18.48907,60.10562],[18.51103,60.15487],[18.50803,60.20972],[18.56981,60.20849],[18.60047,60.23522],[18.56204,60.27466],[18.48187,60.31007],[18.56702,60.31251],[18.58104,60.34418],[18.51172,60.35689],[18.44291,60.41686],[18.40875,60.50504],[18.37293,60.49687],[18.36641,60.45369],[18.40478,60.36702],[18.36871,60.34614],[18.27058,60.36093],[18.10181,60.43812],[17.99744,60.51059],[17.98787,60.57493],[17.90775,60.60262],[17.78951,60.57847],[17.73107,60.53178],[17.65516,60.5245],[17.60276,60.59605],[17.60768,60.6496],[17.35078,60.65233],[17.30079,60.47114],[17.2041,60.42871],[17.19953,60.30919],[17.10041,60.26871],[16.90576,60.28713],[16.865,60.26259],[16.88116,60.24158],[16.79744,60.20171],[16.72044,60.19991],[16.73512,60.11869],[16.69298,60.11054],[16.7218,60.04155],[16.69192,60.01084],[16.78964,59.97001],[16.79855,59.92224],[16.77816,59.9],[16.83126,59.86022],[16.79975,59.81875],[16.74421,59.78129],[16.79464,59.73201],[16.86904,59.67444],[16.90482,59.5674],[16.97374,59.53128],[17.04365,59.55194],[17.10321,59.56055],[17.21708,59.53268],[17.34078,59.47678],[17.42575,59.47435],[17.42286,59.52724],[17.35475,59.60292],[17.36606,59.61224]]]}},{"type":"Feature","properties":{"code":"04","name":"Södermanlands län"},"geometry":{"type":"Polygon","coordinates":[[[15.95815,58.96497],[16.05379,58.94164],[16.09889,58.89722],[16.16703,58.85739],[16.22659,58.84943],[16.25292,58.82905],[16.36946,58.70997],[16.54529,58.70577],[16.68784,58.68001],[16.74836,58.63245],[16.81983,58.62761],[16.90149,58.62203],[17.01062,58.64167],[17.00948,58.66351],[16.92625,58.67651],[16.96974,58.68802],[17.02882,58.68392],[17.08875,58.6616],[17.13288,58.69659],[17.08279,58.72125],[17.01324,58.75572],[17.07948,58.76925],[17.12784,58.74228],[17.17998,58.74223],[17.28151,58.72948],[17.32293,58.75453],[17.38837,58.7466],[17.40389,58.79138],[17.43065,58.78795],[17.44998,58.78566],[17.50101,58.78809],[17.47483,58.80474],[17.49291,58.86782],[17.55742,58.83942],[17.59096,58.8502],[17.56839,58.87806],[17.61895,58.90485],[17.60014,58.9478],[17.52531,58.9678],[17.52157,58.99166],[17.36402,58.99215],[17.28902,59.05012],[17.30393,59.14157],[17.25416,59.19043],[17.24034,59.24219],[17.28475,59.26796],[17.25734,59.30469],[17.31252,59.3244],[17.30348,59.35592],[17.2726,59.3599],[17.32437,59.39257],[17.28139,59.44283],[17.14742,59.46127],[17.12009,59.43957],[17.15343,59.37916],[17.07819,59.3771],[17.04217,59.44131],[17.07336,59.47729],[17.01512,59.49943],[16.96923,59.48803],[16.95267,59.45287],[16.83885,59.4805],[16.78557,59.46772],[16.70414,59.4655],[16.60664,59.44993],[16.51689,59.45934],[16.41861,59.44931],[16.23084,59.44271],[16.22405,59.41504],[16.27257,59.3957],[16.2594,59.37114],[16.1353,59.35711],[16.05184,59.36404],[15.99761,59.3746],[15.92616,59.34267],[15.85441,59.29967],[15.99494,59.29451],[16.06575,59.26668],[16.25682,59.29833],[16.2985,59.29573],[16.26227,59.2636],[16.18067,59.24695],[16.07123,59.24101],[16.00334,59.22703],[15.89294,59.20654],[15.88561,59.17078],[15.83661,59.14657],[15.76981,59.15004],[15.77171,59.12005],[15.67852,59.11286],[15.62634,59.06883],[15.60587,59.02475],[15.63234,59.0032],[15.74179,58.98033],[15.79383,59.03876],[15.84306,59.02498],[15.8613,58.99856],[15.95815,58.96497]]]}},{"type":"Feature","properties":{"code":"05","name":"Östergötlands län"},"geometry":{"type":"Polygon","coordinates":[[[14.93369,58.13112],[14.98198,58.11766],[15.02565,58.03216],[15.04962,58.00011],[15.01432,57.97676],[14.98311,57.9345],[15.00458,57.89598],[15.07638,57.85044],[15.06458,57.8258],[15.10026,57.75875],[15.14135,57.70765],[15.28439,57.71577],[15.41585,57.70091],[15.42914,57.74716],[15.45706,57.76722],[15.51661,57.7619],[15.53646,57.79629],[15.591,57.82439],[15.5806,57.85395],[15.67093,57.86482],[15.77823,57.84564],[15.79473,57.81387],[15.86665,57.83296],[15.91963,57.81338],[16.01863,57.86147],[16.06676,57.86476],[16.01972,57.95371],[16.06485,57.97259],[15.98441,58.03557],[15.99882,58.08775],[16.09208,58.08853],[16.1168,58.06342],[16.1755,58.06693],[16.15127,58.10831],[16.17903,58.12464],[16.25184,58.15799],[16.29372,58.13356],[16.37198,58.1514],[16.46917,58.08403],[16.501,58.11632],[16.56164,58.0996],[16.61246,57.98928],[16.6889,57.98229],[16.74882,58.00415],[16.70932,58.04975],[16.7726,58.07079],[16.69158,58.11439],[16.6791,58.14605],[16.769,58.1236],[16.8199,58.18898],[16.76606,58.23255],[16.68099,58.26612],[16.84761,58.28314],[16.88369,58.32958],[16.80959,58.36187],[16.71456,58.36654],[16.68893,58.40089],[16.59647,58.41614],[16.56492,58.44119],[16.61248,58.43863],[16.71988,58.42778],[16.82831,58.4476],[16.90309,58.50953],[16.82756,58.55096],[16.71197,58.59866],[16.572,58.63336],[16.42128,58.63962],[16.39953,58.59393],[16.34575,58.62818],[16.26559,58.61159],[16.23284,58.61911],[16.23429,58.65342],[16.27359,58.67264],[16.37546,58.6643],[16.44453,58.66346],[16.57857,58.64561],[16.68323,58.63502],[16.74836,58.63245],[16.68784,58.68001],[16.54529,58.70577],[16.36946,58.70997],[16.25292,58.82905],[16.22659,58.84943],[16.16703,58.85739],[16.09889,58.89722],[16.05379,58.94164],[15.95815,58.96497],[15.8613,58.99856],[15.84306,59.02498],[15.79383,59.03876],[15.74179,58.98033],[15.63234,59.0032],[15.53067,58.94461],[15.56639,58.91117],[15.52352,58.87564],[15.43995,58.87682],[15.4194,58.83092],[15.38733,58.8599],[15.33919,58.84723],[15.2474,58.875],[15.18691,58.83674],[15.13441,58.83599],[15.08595,58.80428],[15.04984,58.76463],[15.0283,58.7278],[14.93958,58.69906],[14.92668,58.63374],[14.85916,58.59034],[14.92905,58.56135],[14.98964,58.55449],[15.02414,58.53818],[14.96147,58.51807],[14.92363,58.46769],[14.86222,58.45289],[14.81898,58.47685],[14.77568,58.46648],[14.77262,58.43412],[14.65982,58.38399],[14.64626,58.34976],[14.62584,58.3153],[14.63892,58.29476],[14.61409,58.27256],[14.59076,58.20514],[14.53765,58.10614],[14.60413,58.09249],[14.74814,58.10487],[14.75559,58.07378],[14.89472,58.08986],[14.93369,58.13112]]]}},{"type":"Feature","properties":{"code":"06","name":"Jönköpings län"},"geometry":{"type":"Polygon","coordinates":[[[14.98311,57.9345],[15.01432,57.97676],[15.04962,58.00011],[15.02565,58.03216],[14.98198,58.11766],[14.93369,58.13112],[14.89472,58.08986],[14.75559,58.07378],[14.74814,58.10487],[14.60413,58.09249],[14.53765,58.10614],[14.46833,58.04525],[14.45014,58.00283],[14.3522,57.96802],[14.28571,57.90091],[14.26682,57.85309],[14.25972,57.79569],[14.20867,57.79277],[14.17939,57.77976],[14.15094,57.79015],[14.15835,57.83131],[14.14202,57.8718],[14.11412,57.88577],[14.11689,57.95782],[14.15783,57.99736],[14.19398,58.066],[14.21303,58.14569],[14.11324,58.15166],[14.11422,58.07524],[14.07178,58.04657],[14.0686,58.02868],[13.96017,58.00941],[13.95097,58.03419],[13.87583,58.05028],[13.84675,58.03897],[13.79845,58.05379],[13.77634,58.04998],[13.75785,58.01414],[13.70845,57.98208],[13.70887,57.93757],[13.74919,57.88287],[13.74145,57.84354],[13.74269,57.76412],[13.71093,57.7349],[13.70745,57.70739],[13.7368,57.6688],[13.72205,57.6406],[13.67643,57.62823],[13.67289,57.60674],[13.68209,57.56124],[13.66741,57.53304],[13.62108,57.51528],[13.50829,57.41567],[13.48606,57.38058],[13.43009,57.36317],[13.42973,57.33974],[13.38545,57.33264],[13.36918,57.3135],[13.29351,57.30349],[13.27273,57.24728],[13.22774,57.25637],[13.19789,57.23419],[13.18048,57.18444],[13.13331,57.14914],[13.08603,57.12705],[13.09018,57.09564],[13.13123,57.03148],[13.22034,57.07644],[13.22823,57.10676],[13.26949,57.096],[13.35858,57.11744],[13.45969,57.10946],[13.4849,57.12277],[13.49647,57.09161],[13.52682,57.09568],[13.60826,57.0686],[13.59238,57.03144],[13.62019,56.99953],[13.68498,56.98636],[13.70474,57.0534],[13.74676,57.0683],[13.8187,57.06436],[13.86203,57.00821],[13.92092,57.02525],[13.93173,57.05001],[14.01988,57.06382],[14.07426,57.05397],[14.11334,57.0322],[14.13485,57.04196],[14.19497,56.99026],[14.204,56.94828],[14.24725,56.89557],[14.29201,56.88247],[14.33975,56.8981],[14.39217,56.96943],[14.33041,57.01051],[14.32021,57.04533],[14.33981,57.06239],[14.33999,57.15445],[14.38752,57.15503],[14.48733,57.15771],[14.544,57.1656],[14.55333,57.19762],[14.59237,57.19376],[14.6082,57.20736],[14.67229,57.213],[14.72894,57.23164],[14.78766,57.23207],[14.85163,57.21414],[14.89337,57.19015],[14.91009,57.14045],[14.96683,57.14271],[14.98492,57.16701],[15.02604,57.17374],[15.06776,57.18885],[15.08535,57.20472],[15.1546,57.20259],[15.11191,57.23756],[15.17176,57.23775],[15.21769,57.21884],[15.37674,57.23306],[15.52997,57.19996],[15.49907,57.24569],[15.46526,57.25856],[15.45984,57.31133],[15.50681,57.32842],[15.48966,57.37285],[15.50376,57.3919],[15.49879,57.44646],[15.5467,57.4671],[15.60224,57.44567],[15.60537,57.49071],[15.63569,57.50696],[15.62174,57.53495],[15.5782,57.55565],[15.65324,57.6072],[15.51269,57.66628],[15.44039,57.67417],[15.41585,57.70091],[15.28439,57.71577],[15.14135,57.70765],[15.10026,57.75875],[15.06458,57.8258],[15.07638,57.85044],[15.00458,57.89598],[14.98311,57.9345]]]}},{"type":"Feature","properties":{"code":"07","name":"Kronobergs län"},"geometry":{"type":"Polygon","coordinates":[[[15.06776,57.18885],[15.02604,57.17374],[14.98492,57.16701],[14.96683,57.14271],[14.91009,57.14045],[14.89337,57.19015],[14.85163,57.21414],[14.78766,57.23207],[14.72894,57.23164],[14.67229,57.213],[14.6082,57.20736],[14.59237,57.19376],[14.55333,57.19762],[14.544,57.1656],[14.48733,57.15771],[14.38752,57.15503],[14.33999,57.15445],[14.33981,57.06239],[14.32021,57.04533],[14.33041,57.01051],[14.39217,56.96943],[14.33975,56.8981],[14.29201,56.88247],[14.24725,56.89557],[14.204,56.94828],[14.19497,56.99026],[14.13485,57.04196],[14.11334,57.0322],[14.07426,57.05397],[14.01988,57.06382],[13.93173,57.05001],[13.92092,57.02525],[13.86203,57.00821],[13.8187,57.06436],[13.74676,57.0683],[13.70474,57.0534],[13.68498,56.98636],[13.69306,56.96194],[13.66032,56.90211],[13.62206,56.90927],[13.61265,56.89166],[13.53359,56.8898],[13.48725,56.86662],[13.4694,56.87823],[13.37158,56.86087],[13.34038,56.87124],[13.29628,56.84729],[13.32206,56.77287],[13.32624,56.69336],[13.37372,56.66245],[13.40208,56.61372],[13.41715,56.58481],[13.44403,56.5692],[13.47444,56.51374],[13.4484,56.47163],[13.4714,56.45256],[13.45722,56.43096],[13.49719,56.40993],[13.57701,56.40932],[13.70508,56.42789],[13.78879,56.44876],[13.86988,56.44851],[13.92823,56.46735],[14.01611,56.46848],[14.05476,56.50447],[14.06258,56.53115],[14.10192,56.53281],[14.13338,56.50778],[14.23787,56.49166],[14.25297,56.50353],[14.41474,56.48072],[14.52439,56.45807],[14.5969,56.45177],[14.66863,56.40091],[14.71002,56.39082],[14.80246,56.38209],[14.87997,56.3633],[14.92059,56.38328],[14.96588,56.43794],[15.01901,56.46021],[15.12657,56.46123],[15.13514,56.43903],[15.19373,56.43922],[15.20234,56.46583],[15.25134,56.48283],[15.29595,56.4621],[15.33574,56.48684],[15.34211,56.54433],[15.37121,56.55886],[15.36216,56.60461],[15.41879,56.64644],[15.40783,56.67241],[15.41999,56.71508],[15.35776,56.77849],[15.43719,56.79724],[15.54075,56.80544],[15.55165,56.83612],[15.51002,56.89835],[15.5119,56.91754],[15.554,56.92945],[15.65216,56.91077],[15.69273,56.91549],[15.80927,56.92086],[15.84144,56.97675],[15.79876,57.02287],[15.73652,57.07079],[15.664,57.08734],[15.62714,57.13121],[15.53568,57.15304],[15.55569,57.1844],[15.52997,57.19996],[15.37674,57.23306],[15.21769,57.21884],[15.17176,57.23775],[15.11191,57.23756],[15.1546,57.20259],[15.08535,57.20472],[15.06776,57.18885]]]}},{"type":"Feature","properties":{"code":"08","name":"Kalmar län"},"geometry":{"type":"MultiPolygon","coordinates":[[[[15.73652,57.07079],[15.79876,57.02287],[15.84144,56.97675],[15.80927,56.92086],[15.69273,56.91549],[15.65216,56.91077],[15.554,56.92945],[15.5119,56.91754],[15.51002,56.89835],[15.55165,56.83612],[15.54075,56.80544],[15.43719,56.79724],[15.35776,56.77849],[15.41999,56.71508],[15.40783,56.67241],[15.41879,56.64644],[15.36216,56.60461],[15.37121,56.55886],[15.34211,56.54433],[15.33574,56.48684],[15.39805,56.49939],[15.48135,56.48226],[15.49263,56.51534],[15.56438,56.50008],[15.5905,56.46952],[15.63948,56.47009],[15.65568,56.44434],[15.67737,56.41886],[15.73077,56.41007],[15.79422,56.3427],[15.85117,56.32095],[15.94595,56.32387],[15.98758,56.30666],[16.05206,56.32414],[16.08392,56.40352],[16.11965,56.47056],[16.16308,56.49424],[16.1865,56.53977],[16.22434,56.5481],[16.22209,56.59534],[16.23552,56.62523],[16.2793,56.673],[16.35362,56.68247],[16.39688,56.7828],[16.43837,56.76365],[16.46935,56.78327],[16.44245,56.80866],[16.4067,56.79661],[16.4359,56.88761],[16.46081,56.94147],[16.45475,56.98537],[16.49075,57.03908],[16.58099,57.11081],[16.49777,57.13281],[16.46264,57.19861],[16.49869,57.23783],[16.48038,57.28619],[16.55792,57.31714],[16.54794,57.37218],[16.61828,57.37279],[16.6549,57.42645],[16.68967,57.48567],[16.66837,57.52158],[16.57888,57.58085],[16.67063,57.58485],[16.70527,57.6024],[16.70667,57.63492],[16.63935,57.62143],[16.60536,57.6473],[16.63538,57.68693],[16.69376,57.70467],[16.6925,57.7537],[16.61811,57.78052],[16.53326,57.84786],[16.60027,57.89951],[16.68607,57.89005],[16.74401,57.86432],[16.76555,57.92266],[16.74882,58.00415],[16.6889,57.98229],[16.61246,57.98928],[16.56164,58.0996],[16.501,58.11632],[16.46917,58.08403],[16.37198,58.1514],[16.29372,58.13356],[16.25184,58.15799],[16.17903,58.12464],[16.15127,58.10831],[16.1755,58.06693],[16.1168,58.06342],[16.09208,58.08853],[15.99882,58.08775],[15.98441,58.03557],[16.06485,57.97259],[16.01972,57.95371],[16.06676,57.86476],[16.01863,57.86147],[15.91963,57.81338],[15.86665,57.83296],[15.79473,57.81387],[15.77823,57.84564],[15.67093,57.86482],[15.5806,57.85395],[15.591,57.82439],[15.53646,57.79629],[15.51661,57.7619],[15.45706,57.76722],[15.42914,57.74716],[15.41585,57.70091],[15.44039,57.67417],[15.51269,57.66628],[15.65324,57.6072],[15.5782,57.55565],[15.62174,57.53495],[15.63569,57.50696],[15.60537,57.49071],[15.60224,57.44567],[15.5467,57.4671],[15.49879,57.44646],[15.50376,57.3919],[15.48966,57.37285],[15.50681,57.32842],[15.45984,57.31133],[15.46526,57.25856],[15.49907,57.24569],[15.52997,57.19996],[15.55569,57.1844],[15.53568,57.15304],[15.62714,57.13121],[15.664,57.08734],[15.73652,57.07079]]],[[[16.52095,56.76522],[16.45818,56.68077],[16.43912,56.62773],[16.38833,56.57866],[16.37875,56.53765],[16.38437,56.43582],[16.40598,56.43071],[16.39826,56.27181],[16.41686,56.25423],[16.40805,56.20229],[16.47375,56.23397],[16.5067,56.29147],[16.57212,56.37569],[16.55732,56.40934],[16.59976,56.46437],[16.63076,56.52561],[16.63866,56.57218],[16.69147,56.60108],[16.68376,56.62337],[16.70254,56.67823],[16.779,56.82508],[16.82696,56.83254],[16.85569,56.86856],[16.85349,56.89954],[16.87548,56.92153],[16.87937,56.99015],[16.93575,57.01692],[16.91084,57.04955],[16.95035,57.04851],[16.98748,57.11656],[17.03881,57.1745],[17.06578,57.18886],[17.0678,57.24857],[17.05362,57.27136],[17.07918,57.30577],[17.12967,57.32023],[17.11312,57.35953],[17.0841,57.35076],[17.06151,57.36691],[17.01991,57.34815],[16.96543,57.30492],[16.95603,57.25482],[16.94463,57.22301],[16.90458,57.20954],[16.91611,57.17609],[16.89006,57.12536],[16.8436,57.07247],[16.81342,57.0311],[16.77187,57.01048],[16.74008,56.96198],[16.70854,56.90075],[16.64924,56.90128],[16.60836,56.88239],[16.57431,56.82313],[16.52095,56.76522]]]]}},{"type":"Feature","properties":{"code":"09","name":"Gotlands län"},"geometry":{"type":"Polygon","coordinates":[[[18.48038,57.83608],[18.42598,57.8133],[18.39032,57.75078],[18.31427,57.67703],[18.24529,57.62631],[18.19114,57.61434],[18.10877,57.56284],[18.09093,57.52429],[18.11051,57.47547],[18.12903,57.4231],[18.16502,57.39655],[18.14988,57.33235],[18.09716,57.30027],[18.08273,57.26147],[18.13673,57.25164],[18.13118,57.17394],[18.16021,57.15886],[18.20497,57.14065],[18.18815,57.08205],[18.20938,57.07486],[18.27384,57.10225],[18.28341,57.07784],[18.25846,57.04899],[18.19239,57.02718],[18.18071,56.98633],[18.12435,56.91643],[18.18958,56.9129],[18.30044,56.9528],[18.3725,57.00678],[18.31995,57.02026],[18.31847,57.08401],[18.424,57.12611],[18.3838,57.13676],[18.52737,57.19378],[18.54348,57.21425],[18.6568,57.23553],[18.69412,57.27053],[18.65544,57.28658],[18.65475,57.31757],[18.72585,57.37516],[18.78906,57.38427],[18.86704,57.39753],[18.90037,57.44014],[18.8392,57.44909],[18.77635,57.47454],[18.73412,57.52366],[18.76691,57.5536],[18.78214,57.61416],[18.74864,57.62613],[18.78422,57.69769],[18.79736,57.75115],[18.84856,57.73038],[18.92342,57.73119],[18.93295,57.79408],[18.99746,57.79394],[18.99543,57.83052],[19.02971,57.8421],[19.09391,57.86197],[19.13402,57.90215],[19.11486,57.92751],[19.13989,57.94169],[19.20145,57.95266],[19.27621,57.95147],[19.3058,57.96888],[19.2889,57.99043],[19.23343,57.98807],[19.14987,58.00456],[19.07429,57.98204],[19.05464,57.94187],[18.99972,57.91936],[18.85919,57.93877],[18.81822,57.91679],[18.77021,57.84991],[18.70641,57.92993],[18.65391,57.91435],[18.607,57.89464],[18.58406,57.8529],[18.53771,57.84586],[18.48038,57.83608]]]}},{"type":"Feature","properties":{"code":"10","name":"Blekinge län"},"geometry":{"type":"Polygon","coordinates":[[[14.57198,56.19963],[14.59491,56.08459],[14.55438,56.07415],[14.54597,56.04569],[14.60821,56.01702],[14.66316,56.00136],[14.72708,55.99962],[14.78218,56.0363],[14.72136,56.07221],[14.68474,56.11761],[14.67962,56.15943],[14.73324,56.15286],[14.77506,56.15234],[14.85051,56.15894],[14.95119,56.16225],[15.02245,56.16358],[15.06056,56.18788],[15.09691,56.16467],[15.16427,56.16252],[15.25329,56.17171],[15.29377,56.18013],[15.31733,56.13712],[15.38621,56.15827],[15.41086,56.1839],[15.45674,56.15576],[15.49568,56.17748],[15.56098,56.19092],[15.59383,56.17802],[15.69296,56.18808],[15.74259,56.16321],[15.72652,56.13347],[15.66443,56.09941],[15.71103,56.09103],[15.78755,56.1169],[15.8514,56.08383],[15.91267,56.15768],[15.95523,56.17481],[16.0109,56.23633],[16.05206,56.32414],[15.98758,56.30666],[15.94595,56.32387],[15.85117,56.32095],[15.79422,56.3427],[15.73077,56.41007],[15.67737,56.41886],[15.65568,56.44434],[15.63948,56.47009],[15.5905,56.46952],[15.56438,56.50008],[15.49263,56.51534],[15.48135,56.48226],[15.39805,56.49939],[15.33574,56.48684],[15.29595,56.4621],[15.25134,56.48283],[15.20234,56.46583],[15.19373,56.43922],[15.13514,56.43903],[15.12657,56.46123],[15.01901,56.46021],[14.96588,56.43794],[14.92059,56.38328],[14.87997,56.3633],[14.80246,56.38209],[14.71002,56.39082],[14.66863,56.40091],[14.5969,56.45177],[14.52439,56.45807],[14.46869,56.40204],[14.41179,56.39239],[14.38963,56.34119],[14.41093,56.30666],[14.43256,56.27392],[14.44082,56.23013],[14.49358,56.2183],[14.54958,56.22433],[14.57198,56.19963]]]}},{"type":"Feature","properties":{"code":"12","name":"Skåne län"},"geometry":{"type":"Polygon","coordinates":[[[13.70508,56.42789],[13.57701,56.40932],[13.49719,56.40993],[13.45722,56.43096],[13.41995,56.41339],[13.3781,56.41524],[13.30267,56.38789],[13.24584,56.35429],[13.20213,56.32852],[13.15158,56.35111],[12.99135,56.36139],[12.94692,56.3674],[12.97081,56.4217],[12.90379,56.44424],[12.84569,56.43034],[12.79635,56.4485],[12.72714,56.46382],[12.68005,56.45122],[12.63159,56.42786],[12.63921,56.38793],[12.69318,56.38046],[12.74496,56.35684],[12.76932,56.32224],[12.82042,56.29441],[12.84827,56.26267],[12.82804,56.23283],[12.79043,56.21721],[12.76826,56.21989],[12.73363,56.22576],[12.70453,56.2251],[12.67833,56.24592],[12.59779,56.27062],[12.50501,56.30112],[12.45937,56.29741],[12.50223,56.27961],[12.53677,56.24771],[12.55226,56.2183],[12.5731,56.15628],[12.58583,56.13898],[12.61954,56.11848],[12.66317,56.08438],[12.71336,56.05179],[12.75587,56.01049],[12.77654,55.96141],[12.83532,55.87145],[12.90476,55.8632],[12.92647,55.82633],[12.93669,55.77539],[12.92453,55.76996],[12.90967,55.75866],[12.92677,55.74458],[12.95485,55.75231],[12.96725,55.73869],[12.95611,55.72692],[12.97306,55.72393],[12.9979,55.72477],[13.03425,55.7082],[13.0512,55.70256],[13.06453,55.68259],[13.06556,55.67466],[13.05172,55.65386],[13.05319,55.64668],[13.05457,55.63612],[13.04642,55.62417],[13.00625,55.61739],[12.97646,55.60488],[12.92617,55.58631],[12.90764,55.57443],[12.90885,55.55593],[12.91574,55.53112],[12.93711,55.50492],[12.95088,55.48707],[12.96042,55.47024],[12.95792,55.44639],[12.94519,55.42348],[12.93323,55.4117],[12.91086,55.41355],[12.88006,55.41901],[12.87041,55.4406],[12.86378,55.4474],[12.81633,55.38594],[12.87476,55.39883],[12.89435,55.39643],[12.90842,55.38812],[12.92517,55.38832],[12.92973,55.39579],[12.94456,55.40125],[12.97429,55.40476],[13.01096,55.3916],[13.06026,55.37394],[13.0826,55.37418],[13.11883,55.37932],[13.21196,55.36698],[13.26225,55.35263],[13.28552,55.347],[13.31991,55.35048],[13.33575,55.34003],[13.38033,55.35681],[13.42032,55.35976],[13.45192,55.37482],[13.48491,55.38213],[13.59391,55.38123],[13.649,55.42114],[13.70053,55.42278],[13.73729,55.43544],[13.85052,55.43171],[13.91531,55.44114],[13.95805,55.43177],[14.06154,55.38862],[14.10316,55.39191],[14.19057,55.38557],[14.20969,55.40503],[14.26019,55.45956],[14.33134,55.50455],[14.36336,55.54257],[14.34889,55.58669],[14.29627,55.61295],[14.27784,55.6717],[14.21784,55.6929],[14.1989,55.75887],[14.20935,55.82875],[14.2801,55.90452],[14.32387,55.91667],[14.3543,55.96202],[14.42964,55.98872],[14.46811,56.03002],[14.54597,56.04569],[14.55438,56.07415],[14.59491,56.08459],[14.57198,56.19963],[14.54958,56.22433],[14.49358,56.2183],[14.44082,56.23013],[14.43256,56.27392],[14.41093,56.30666],[14.38963,56.34119],[14.41179,56.39239],[14.46869,56.40204],[14.52439,56.45807],[14.41474,56.48072],[14.25297,56.50353],[14.23787,56.49166],[14.13338,56.50778],[14.10192,56.53281],[14.06258,56.53115],[14.05476,56.50447],[14.01611,56.46848],[13.92823,56.46735],[13.86988,56.44851],[13.78879,56.44876],[13.70508,56.42789]]]}},{"type":"Feature","properties":{"code":"13","name":"Hallands län"},"geometry":{"type":"Polygon","coordinates":[[[13.29628,56.84729],[13.34038,56.87124],[13.37158,56.86087],[13.4694,56.87823],[13.48725,56.86662],[13.53359,56.8898],[13.61265,56.89166],[13.62206,56.90927],[13.66032,56.90211],[13.69306,56.96194],[13.68498,56.98636],[13.62019,56.99953],[13.59238,57.03144],[13.60826,57.0686],[13.52682,57.09568],[13.49647,57.09161],[13.4849,57.12277],[13.45969,57.10946],[13.35858,57.11744],[13.26949,57.096],[13.22823,57.10676],[13.22034,57.07644],[13.13123,57.03148],[13.09018,57.09564],[13.08603,57.12705],[13.13331,57.14914],[13.1009,57.16069],[13.07278,57.14922],[13.04756,57.15744],[13.05729,57.17868],[13.01206,57.1859],[12.94123,57.1761],[12.93224,57.22872],[12.95329,57.2369],[12.93106,57.26659],[12.85833,57.26763],[12.79867,57.28908],[12.70549,57.33211],[12.65291,57.33769],[12.52764,57.32248],[12.50545,57.28001],[12.42793,57.27199],[12.43079,57.32055],[12.39572,57.34196],[12.41175,57.41091],[12.39716,57.4431],[12.38162,57.45276],[12.35573,57.45779],[12.34493,57.46921],[12.35461,57.49204],[12.34394,57.51258],[12.32676,57.52915],[12.34286,57.56774],[12.28404,57.60418],[12.20563,57.57643],[12.13827,57.56228],[12.03846,57.54961],[12.01327,57.5628],[11.94735,57.56111],[11.95238,57.5277],[11.95797,57.50164],[11.93374,57.46055],[11.92681,57.44208],[11.93329,57.42623],[11.97033,57.37884],[11.98772,57.36125],[12.01168,57.3557],[12.0287,57.36114],[12.03989,57.37655],[12.05945,57.42603],[12.07274,57.45009],[12.09217,57.4615],[12.11132,57.45576],[12.12216,57.4347],[12.12284,57.38704],[12.10095,57.35088],[12.11456,57.34118],[12.14916,57.3467],[12.16368,57.33758],[12.17471,57.30381],[12.18246,57.27688],[12.13416,57.26229],[12.13277,57.22269],[12.19767,57.18266],[12.24876,57.13947],[12.26174,57.08315],[12.29333,57.04419],[12.3409,57.02811],[12.36947,56.99356],[12.37258,56.96681],[12.35867,56.93489],[12.41026,56.90245],[12.48718,56.88889],[12.56491,56.85723],[12.62347,56.82984],[12.62239,56.78124],[12.65899,56.72943],[12.69586,56.6884],[12.73839,56.64173],[12.79372,56.64139],[12.8488,56.66265],[12.90812,56.64407],[12.94012,56.59413],[12.95438,56.54971],[12.953,56.50171],[12.93577,56.47178],[12.90379,56.44424],[12.97081,56.4217],[12.94692,56.3674],[12.99135,56.36139],[13.15158,56.35111],[13.20213,56.32852],[13.24584,56.35429],[13.30267,56.38789],[13.3781,56.41524],[13.41995,56.41339],[13.45722,56.43096],[13.4714,56.45256],[13.4484,56.47163],[13.47444,56.51374],[13.44403,56.5692],[13.41715,56.58481],[13.40208,56.61372],[13.37372,56.66245],[13.32624,56.69336],[13.32206,56.77287],[13.29628,56.84729]]]}},{"type":"Feature","properties":{"code":"14","name":"Västra Götalands län"},"geometry":{"type":"MultiPolygon","coordinates":[[[[12.28404,57.60418],[12.34286,57.56774],[12.32676,57.52915],[12.34394,57.51258],[12.35461,57.49204],[12.34493,57.46921],[12.35573,57.45779],[12.38162,57.45276],[12.39716,57.4431],[12.41175,57.41091],[12.39572,57.34196],[12.43079,57.32055],[12.42793,57.27199],[12.50545,57.28001],[12.52764,57.32248],[12.65291,57.33769],[12.70549,57.33211],[12.79867,57.28908],[12.85833,57.26763],[12.93106,57.26659],[12.95329,57.2369],[12.93224,57.22872],[12.94123,57.1761],[13.01206,57.1859],[13.05729,57.17868],[13.04756,57.15744],[13.07278,57.14922],[13.1009,57.16069],[13.13331,57.14914],[13.18048,57.18444],[13.19789,57.23419],[13.22774,57.25637],[13.27273,57.24728],[13.29351,57.30349],[13.36918,57.3135],[13.38545,57.33264],[13.42973,57.33974],[13.43009,57.36317],[13.48606,57.38058],[13.50829,57.41567],[13.62108,57.51528],[13.66741,57.53304],[13.68209,57.56124],[13.67289,57.60674],[13.67643,57.62823],[13.72205,57.6406],[13.7368,57.6688],[13.70745,57.70739],[13.71093,57.7349],[13.74269,57.76412],[13.74145,57.84354],[13.74919,57.88287],[13.70887,57.93757],[13.70845,57.98208],[13.75785,58.01414],[13.77634,58.04998],[13.79845,58.05379],[13.84675,58.03897],[13.87583,58.05028],[13.95097,58.03419],[13.96017,58.00941],[14.0686,58.02868],[14.07178,58.04657],[14.11422,58.07524],[14.11324,58.15166],[14.21303,58.14569],[14.21923,58.18571],[14.25412,58.22733],[14.28119,58.30001],[14.3515,58.34712],[14.39767,58.40441],[14.45023,58.47041],[14.49038,58.48286],[14.53276,58.54212],[14.54037,58.58145],[14.54189,58.62472],[14.58779,58.64768],[14.67133,58.66872],[14.72147,58.70178],[14.68429,58.74595],[14.62508,58.74537],[14.59644,58.70525],[14.54625,58.69694],[14.53764,58.7245],[14.46815,58.72436],[14.45764,58.79716],[14.40245,58.79916],[14.32677,58.83415],[14.37041,58.87012],[14.3084,58.89301],[14.26796,58.99974],[14.21017,59.04225],[14.11686,59.041],[14.00272,59.00236],[14.02192,58.95458],[14.00479,58.89824],[13.96505,58.85073],[13.9074,58.81906],[13.85523,58.83762],[13.68446,58.85232],[13.66491,58.81889],[13.72561,58.78923],[13.73664,58.75268],[13.78091,58.76877],[13.8527,58.78363],[13.88888,58.77299],[13.86047,58.74901],[13.77009,58.70613],[13.70284,58.69644],[13.61286,58.69491],[13.52871,58.66603],[13.43276,58.64841],[13.34461,58.61418],[13.31925,58.56294],[13.30163,58.5168],[13.25524,58.49825],[13.1761,58.50381],[13.13712,58.51796],[13.18962,58.6132],[13.22364,58.67671],[13.1816,58.6946],[13.11361,58.70086],[13.01015,58.60935],[12.94616,58.57216],[12.95035,58.55398],[12.89099,58.50037],[12.77274,58.48853],[12.70091,58.4407],[12.70468,58.41895],[12.63395,58.40212],[12.65258,58.46223],[12.59467,58.46428],[12.5134,58.39509],[12.45607,58.40066],[12.41992,58.38568],[12.32861,58.39234],[12.32917,58.42291],[12.38636,58.46782],[12.46542,58.49575],[12.52597,58.53809],[12.56634,58.5823],[12.62334,58.62173],[12.67135,58.64524],[12.64963,58.66222],[12.54686,58.6658],[12.49886,58.69265],[12.49293,58.75046],[12.55855,58.80943],[12.63855,58.87868],[12.65284,58.9556],[12.6885,58.98677],[12.77259,59.07042],[12.76631,59.15279],[12.71025,59.17821],[12.63888,59.19515],[12.57438,59.13428],[12.46443,59.14489],[12.42146,59.19712],[12.34642,59.18698],[12.26764,59.20213],[12.23104,59.27357],[12.06197,59.27159],[12.08448,59.19705],[11.94833,59.26237],[11.82032,59.23553],[11.75857,59.20879],[11.75475,59.12504],[11.77635,59.10654],[11.70645,59.04551],[11.67341,58.99495],[11.67634,58.96075],[11.64994,58.91877],[11.50494,58.88113],[11.45213,58.89843],[11.44501,58.92335],[11.45492,59.01809],[11.3594,59.11132],[11.31566,59.11651],[11.27845,59.10267],[11.25274,59.09517],[11.21142,59.0897],[11.13145,59.01184],[11.1342,58.96744],[11.14192,58.95543],[11.17102,58.93574],[11.17328,58.92619],[11.1603,58.92403],[11.13635,58.92785],[11.1317,58.92443],[11.13161,58.90942],[11.17193,58.85802],[11.1795,58.83475],[11.17757,58.7473],[11.25506,58.68315],[11.30962,58.59565],[11.27113,58.56274],[11.327,58.46768],[11.33029,58.45335],[11.33711,58.43988],[11.33271,58.42757],[11.31222,58.42027],[11.29989,58.421],[11.29208,58.43538],[11.273,58.43219],[11.26596,58.41872],[11.26945,58.40101],[11.27385,58.38727],[11.27933,58.37552],[11.25342,58.35786],[11.25893,58.34821],[11.29356,58.34916],[11.3262,58.36076],[11.3348,58.37257],[11.34948,58.37121],[11.35967,58.36191],[11.38453,58.35789],[11.41381,58.37388],[11.41472,58.34255],[11.44542,58.34756],[11.43738,58.32619],[11.42918,58.30863],[11.44717,58.30278],[11.47142,58.30056],[11.46455,58.28289],[11.44832,58.27317],[11.45321,58.2655],[11.49356,58.26965],[11.51296,58.28114],[11.53695,58.30172],[11.55973,58.31152],[11.56354,58.28472],[11.54911,58.27204],[11.52534,58.25645],[11.49987,58.24627],[11.47115,58.24186],[11.45583,58.22914],[11.43161,58.20474],[11.43917,58.19867],[11.48214,58.20093],[11.53056,58.20765],[11.5657,58.21685],[11.58977,58.23394],[11.60348,58.25352],[11.63428,58.25739],[11.6584,58.26754],[11.6841,58.283],[11.70502,58.3066],[11.74417,58.30681],[11.7537,58.31701],[11.73373,58.32853],[11.7714,58.33173],[11.81689,58.32455],[11.87893,58.3269],[11.83952,58.30208],[11.83336,58.28928],[11.86604,58.26261],[11.887,58.2417],[11.88978,58.21986],[11.92,58.22063],[11.91905,58.20426],[11.89571,58.18936],[11.87647,58.18564],[11.88366,58.16242],[11.88056,58.13708],[11.86581,58.1195],[11.84612,58.10471],[11.82909,58.09198],[11.83405,58.07009],[11.84194,58.048],[11.84165,58.02615],[11.83103,58.00174],[11.78168,57.97118],[11.77584,57.96114],[11.77629,57.94775],[11.7904,57.9365],[11.76039,57.90213],[11.75255,57.88307],[11.74112,57.86977],[11.722,57.85457],[11.71655,57.84095],[11.72942,57.8318],[11.75136,57.82085],[11.76013,57.81314],[11.76636,57.79194],[11.77856,57.78865],[11.80789,57.79137],[11.82825,57.79196],[11.8191,57.76017],[11.78338,57.75291],[11.74885,57.74357],[11.73147,57.72869],[11.73171,57.71985],[11.73931,57.71319],[11.75565,57.69879],[11.77268,57.69623],[11.78541,57.69671],[11.79692,57.69984],[11.80144,57.71288],[11.81489,57.71606],[11.83093,57.71344],[11.84933,57.69806],[11.89401,57.70401],[11.90837,57.69865],[11.93823,57.70512],[11.95786,57.70584],[11.88745,57.6818],[11.88044,57.6735],[11.8822,57.66606],[11.91329,57.6222],[11.92608,57.62214],[11.94218,57.63774],[11.95196,57.62845],[11.95148,57.58502],[11.94735,57.56111],[12.01327,57.5628],[12.03846,57.54961],[12.13827,57.56228],[12.20563,57.57643],[12.28404,57.60418]]],[[[11.8452,58.11993],[11.85332,58.1369],[11.856,58.16297],[11.8495,58.18318],[11.8563,58.19995],[11.86703,58.21722],[11.85871,58.23028],[11.83958,58.24262],[11.82011,58.25036],[11.80067,58.25785],[11.79135,58.27509],[11.79035,58.29351],[11.75288,58.29515],[11.73309,58.29293],[11.70142,58.28226],[11.69695,58.26773],[11.7015,58.25305],[11.69644,58.24106],[11.68246,58.24054],[11.65829,58.24271],[11.63646,58.23929],[11.61504,58.22546],[11.59557,58.21177],[11.57006,58.20233],[11.55096,58.19497],[11.52106,58.18867],[11.50486,58.18151],[11.4867,58.17356],[11.46188,58.17459],[11.43555,58.17824],[11.40833,58.15767],[11.39159,58.13236],[11.40431,58.13661],[11.41714,58.1482],[11.4395,58.14697],[11.44452,58.13564],[11.46432,58.12548],[11.48731,58.11246],[11.50269,58.09958],[11.49816,58.08638],[11.48323,58.07344],[11.47367,58.06864],[11.48954,58.06066],[11.50785,58.07117],[11.51999,58.06349],[11.53591,58.05983],[11.55457,58.06265],[11.5755,58.07514],[11.59068,58.09049],[11.59691,58.10603],[11.60954,58.11786],[11.64238,58.12951],[11.66577,58.12345],[11.69588,58.11303],[11.71253,58.10533],[11.71014,58.09239],[11.73316,58.08973],[11.75092,58.10551],[11.77081,58.11277],[11.78103,58.1143],[11.80969,58.11699],[11.8452,58.11993]]],[[[11.70059,57.97756],[11.7082,57.98964],[11.7151,58.00813],[11.73419,58.00619],[11.74041,57.99463],[11.75335,57.99459],[11.76841,58.00213],[11.77616,58.01783],[11.776,58.04208],[11.77218,58.05908],[11.75411,58.06966],[11.72448,58.05834],[11.70612,58.06247],[11.71778,58.07416],[11.72069,58.08393],[11.69892,58.09167],[11.68083,58.09312],[11.67239,58.08851],[11.65448,58.06154],[11.64331,58.05468],[11.6238,58.05123],[11.56758,58.05546],[11.55212,58.05163],[11.54071,58.04689],[11.5295,58.03197],[11.53055,58.0229],[11.53938,58.0152],[11.55646,58.01373],[11.59696,58.01587],[11.60089,58.00745],[11.59871,58.0004],[11.57212,57.99828],[11.56045,57.99621],[11.55758,57.98644],[11.56121,57.97211],[11.56781,57.96648],[11.57501,57.96408],[11.5944,57.95949],[11.59566,57.9397],[11.60251,57.93166],[11.63501,57.93374],[11.64289,57.94316],[11.65255,57.95426],[11.6638,57.96006],[11.68606,57.96521],[11.70235,57.97066],[11.70059,57.97756]]],[[[11.68693,57.75392],[11.6679,57.74535],[11.6676,57.72721],[11.65002,57.72789],[11.65036,57.7182],[11.65743,57.71425],[11.65502,57.70447],[11.63107,57.70512],[11.63297,57.69611],[11.68401,57.67729],[11.6946,57.68146],[11.69905,57.69281],[11.69782,57.71016],[11.70813,57.729],[11.72076,57.74171],[11.7061,57.75858],[11.68693,57.75392]]],[[[11.67008,57.90348],[11.63111,57.89767],[11.59835,57.87172],[11.62936,57.86008],[11.70123,57.88163],[11.71373,57.90302],[11.67008,57.90348]]],[[[11.60152,57.74337],[11.6183,57.74006],[11.65908,57.7709],[11.62277,57.79392],[11.60152,57.74337]]],[[[11.78016,58.07841],[11.79141,58.08048],[11.80328,58.08983],[11.80278,58.10117],[11.7857,58.10572],[11.7834,58.09199],[11.78016,58.07841]]],[[[11.75154,58.08359],[11.77235,58.08285],[11.76599,58.10124],[11.75154,58.08359]]]]}},{"type":"Feature","properties":{"code":"17","name":"Värmlands län"},"geometry":{"type":"Polygon","coordinates":[[[13.10041,59.25038],[13.15409,59.27897],[13.14906,59.35312],[13.18316,59.33014],[13.22215,59.30879],[13.28287,59.31361],[13.25582,59.34354],[13.28407,59.36587],[13.38085,59.37463],[13.43764,59.33985],[13.50504,59.27031],[13.57839,59.30876],[13.60507,59.35577],[13.69246,59.37793],[13.74534,59.33595],[13.81437,59.36725],[13.88701,59.33817],[13.94705,59.31805],[14.0324,59.32141],[14.06868,59.22946],[14.00347,59.16019],[13.94703,59.09954],[13.948,59.04532],[13.98177,59.03838],[14.02387,59.078],[14.09577,59.1072],[14.14788,59.0849],[14.11686,59.041],[14.21017,59.04225],[14.26796,58.99974],[14.32926,59.09799],[14.28079,59.15812],[14.29946,59.18253],[14.28408,59.23204],[14.31926,59.31265],[14.31878,59.32298],[14.3754,59.39752],[14.46297,59.4475],[14.39802,59.51569],[14.41727,59.54187],[14.46346,59.53241],[14.4601,59.5916],[14.42098,59.67178],[14.43855,59.70709],[14.38411,59.75847],[14.4376,59.7758],[14.41609,59.83103],[14.4311,59.90801],[14.3758,59.91967],[14.34314,59.95553],[14.46293,59.97877],[14.43848,60.02571],[14.2154,60.09873],[14.18658,60.1759],[14.1378,60.24432],[14.03872,60.2385],[14.01879,60.26828],[13.94948,60.26678],[13.96789,60.18864],[13.8481,60.26843],[13.69252,60.41755],[13.56794,60.42143],[13.49692,60.44713],[13.4373,60.52706],[13.30525,60.63678],[13.26015,60.69801],[13.20503,60.69827],[13.17549,60.76609],[12.70242,61.00796],[12.67635,61.05808],[12.61526,61.04686],[12.48611,61.05276],[12.23283,61.01905],[12.3419,60.89329],[12.33588,60.84843],[12.39201,60.74582],[12.51131,60.65198],[12.50821,60.60343],[12.60298,60.52286],[12.60952,60.41453],[12.49896,60.32623],[12.54118,60.18612],[12.50617,60.13319],[12.44764,60.03898],[12.38056,60.01292],[12.34932,59.96707],[12.22308,59.93497],[12.16092,59.89723],[12.05584,59.88777],[11.97169,59.90283],[11.86477,59.84647],[11.93252,59.78511],[11.94206,59.7254],[11.88552,59.6892],[11.8565,59.65401],[11.74458,59.63913],[11.69625,59.58823],[11.74543,59.48966],[11.7796,59.38608],[11.81704,59.3436],[11.82032,59.23553],[11.94833,59.26237],[12.08448,59.19705],[12.06197,59.27159],[12.23104,59.27357],[12.26764,59.20213],[12.34642,59.18698],[12.42146,59.19712],[12.46443,59.14489],[12.57438,59.13428],[12.63888,59.19515],[12.71025,59.17821],[12.76631,59.15279],[12.77259,59.07042],[12.89829,59.09567],[12.90647,59.05571],[12.9953,59.06499],[13.02448,59.02602],[13.0769,59.02581],[13.1074,58.92725],[13.21442,58.89779],[13.2596,58.91944],[13.224,59.07239],[13.16604,59.17389],[13.10041,59.25038]]]}},{"type":"Feature","properties":{"code":"18","name":"Örebro län"},"geometry":{"type":"Polygon","coordinates":[[[15.57945,59.42881],[15.70751,59.42444],[15.70586,59.47885],[15.67361,59.49339],[15.70937,59.52995],[15.6134,59.52584],[15.61053,59.59118],[15.59878,59.63349],[15.53365,59.62994],[15.48991,59.65775],[15.53476,59.70832],[15.4817,59.79577],[15.4073,59.81619],[15.4018,59.86115],[15.32464,59.92931],[15.2169,59.99121],[15.12438,60.02507],[15.06656,60.06971],[15.01852,60.06498],[14.99335,60.08256],[14.92364,60.06082],[14.85301,60.08611],[14.84616,60.12262],[14.79127,60.11995],[14.71731,60.0947],[14.74543,60.00292],[14.43848,60.02571],[14.46293,59.97877],[14.34314,59.95553],[14.3758,59.91967],[14.4311,59.90801],[14.41609,59.83103],[14.4376,59.7758],[14.38411,59.75847],[14.43855,59.70709],[14.42098,59.67178],[14.4601,59.5916],[14.46346,59.53241],[14.41727,59.54187],[14.39802,59.51569],[14.46297,59.4475],[14.3754,59.39752],[14.31878,59.32298],[14.31926,59.31265],[14.28408,59.23204],[14.29946,59.18253],[14.28079,59.15812],[14.32926,59.09799],[14.26796,58.99974],[14.3084,58.89301],[14.37041,58.87012],[14.32677,58.83415],[14.40245,58.79916],[14.45764,58.79716],[14.46815,58.72436],[14.53764,58.7245],[14.54625,58.69694],[14.59644,58.70525],[14.62508,58.74537],[14.68429,58.74595],[14.72147,58.70178],[14.81742,58.73362],[14.87352,58.80481],[14.93721,58.82676],[14.94042,58.77414],[14.97289,58.77963],[14.97968,58.74491],[14.93958,58.69906],[15.0283,58.7278],[15.04984,58.76463],[15.08595,58.80428],[15.13441,58.83599],[15.18691,58.83674],[15.2474,58.875],[15.33919,58.84723],[15.38733,58.8599],[15.4194,58.83092],[15.43995,58.87682],[15.52352,58.87564],[15.56639,58.91117],[15.53067,58.94461],[15.63234,59.0032],[15.60587,59.02475],[15.62634,59.06883],[15.67852,59.11286],[15.77171,59.12005],[15.76981,59.15004],[15.65314,59.15599],[15.60208,59.19517],[15.64112,59.22731],[15.56095,59.279],[15.42814,59.25399],[15.2862,59.28361],[15.28117,59.30922],[15.42215,59.3068],[15.55086,59.32847],[15.61688,59.32286],[15.64167,59.35401],[15.57945,59.42881]]]}},{"type":"Feature","properties":{"code":"19","name":"Västmanlands län"},"geometry":{"type":"Polygon","coordinates":[[[15.53476,59.70832],[15.48991,59.65775],[15.53365,59.62994],[15.59878,59.63349],[15.61053,59.59118],[15.6134,59.52584],[15.70937,59.52995],[15.67361,59.49339],[15.70586,59.47885],[15.70751,59.42444],[15.57945,59.42881],[15.64167,59.35401],[15.61688,59.32286],[15.75789,59.32007],[15.79583,59.28523],[15.85441,59.29967],[15.92616,59.34267],[15.99761,59.3746],[16.05184,59.36404],[16.1353,59.35711],[16.2594,59.37114],[16.27257,59.3957],[16.22405,59.41504],[16.23084,59.44271],[16.08702,59.43618],[16.05837,59.4796],[16.17542,59.47786],[16.241,59.49826],[16.32495,59.4776],[16.44608,59.49167],[16.4849,59.5182],[16.55063,59.55204],[16.51535,59.58153],[16.58416,59.59885],[16.65593,59.57242],[16.71336,59.53238],[16.7927,59.54889],[16.82037,59.57245],[16.90482,59.5674],[16.86904,59.67444],[16.79464,59.73201],[16.74421,59.78129],[16.79975,59.81875],[16.83126,59.86022],[16.77816,59.9],[16.79855,59.92224],[16.78964,59.97001],[16.69192,60.01084],[16.7218,60.04155],[16.69298,60.11054],[16.73512,60.11869],[16.72044,60.19991],[16.57018,60.19639],[16.51633,60.18529],[16.51559,60.15452],[16.42052,60.12423],[16.37782,60.08519],[16.19179,60.0761],[16.15326,60.08629],[16.17065,60.12692],[16.10668,60.14709],[16.05297,60.1503],[16.01934,60.19094],[15.96675,60.19888],[15.894,60.16874],[15.77913,60.18218],[15.75504,60.14961],[15.71544,60.13559],[15.71857,60.10281],[15.6627,60.04987],[15.70954,60.01823],[15.67799,59.94519],[15.609,59.95878],[15.53021,59.9614],[15.48158,59.90619],[15.4018,59.86115],[15.4073,59.81619],[15.4817,59.79577],[15.53476,59.70832]]]}},{"type":"Feature","properties":{"code":"20","name":"Dalarnas län"},"geometry":{"type":"Polygon","coordinates":[[[13.94948,60.26678],[14.01879,60.26828],[14.03872,60.2385],[14.1378,60.24432],[14.18658,60.1759],[14.2154,60.09873],[14.43848,60.02571],[14.74543,60.00292],[14.71731,60.0947],[14.79127,60.11995],[14.84616,60.12262],[14.85301,60.08611],[14.92364,60.06082],[14.99335,60.08256],[15.01852,60.06498],[15.06656,60.06971],[15.12438,60.02507],[15.2169,59.99121],[15.32464,59.92931],[15.4018,59.86115],[15.48158,59.90619],[15.53021,59.9614],[15.609,59.95878],[15.67799,59.94519],[15.70954,60.01823],[15.6627,60.04987],[15.71857,60.10281],[15.71544,60.13559],[15.75504,60.14961],[15.77913,60.18218],[15.894,60.16874],[15.96675,60.19888],[16.01934,60.19094],[16.05297,60.1503],[16.10668,60.14709],[16.17065,60.12692],[16.15326,60.08629],[16.19179,60.0761],[16.37782,60.08519],[16.42052,60.12423],[16.51559,60.15452],[16.51633,60.18529],[16.57018,60.19639],[16.72044,60.19991],[16.63929,60.23732],[16.62838,60.29242],[16.58763,60.30408],[16.57909,60.3409],[16.52066,60.36452],[16.40311,60.38152],[16.30105,60.48325],[16.27536,60.512],[16.23331,60.51999],[16.14722,60.60488],[16.24131,60.61857],[16.32218,60.67953],[16.30502,60.71319],[16.37482,60.73977],[16.40095,60.78771],[16.2402,60.87837],[16.14258,61.00072],[15.93412,61.01221],[15.75813,61.06018],[15.68078,61.13144],[15.65433,61.22342],[15.23018,61.51242],[15.159,61.60406],[15.06933,61.49282],[14.91719,61.50575],[14.8026,61.50044],[14.7484,61.51206],[14.64765,61.50055],[14.68411,61.54763],[14.65763,61.60127],[14.50071,61.63019],[14.41477,61.58619],[14.35678,61.61317],[14.20141,61.63263],[13.98311,61.63467],[13.89014,61.65115],[13.61309,61.67123],[13.5647,61.65505],[13.50663,61.69156],[13.51449,61.73636],[13.41605,61.82664],[13.20921,61.93516],[13.37135,62.01045],[13.32274,62.01764],[13.29574,62.06189],[13.15938,62.02707],[13.03841,62.08534],[12.94047,62.14632],[12.79561,62.23035],[12.61676,62.22158],[12.30215,62.26155],[12.16087,61.7253],[12.43467,61.5678],[12.58283,61.57403],[12.86224,61.36068],[12.82748,61.2471],[12.78112,61.18738],[12.69785,61.15409],[12.67635,61.05808],[12.70242,61.00796],[13.17549,60.76609],[13.20503,60.69827],[13.26015,60.69801],[13.30525,60.63678],[13.4373,60.52706],[13.49692,60.44713],[13.56794,60.42143],[13.69252,60.41755],[13.8481,60.26843],[13.96789,60.18864],[13.94948,60.26678]],[[14.67134,60.82897],[14.56617,60.89361],[14.64401,60.89353],[14.69106,60.90574],[14.64078,60.93164],[14.56727,60.93512],[14.55254,60.97195],[14.60226,60.99672],[14.68677,60.93849],[14.74635,60.93922],[14.90766,60.86081],[14.98315,60.88415],[15.03672,60.90858],[15.11965,60.88083],[15.05743,60.84544],[14.98245,60.82994],[14.96574,60.75303],[14.90728,60.82466],[14.73521,60.7807],[14.67134,60.82897]]]}},{"type":"Feature","properties":{"code":"21","name":"Gävleborgs län"},"geometry":{"type":"Polygon","coordinates":[[[16.40095,60.78771],[16.37482,60.73977],[16.30502,60.71319],[16.32218,60.67953],[16.24131,60.61857],[16.14722,60.60488],[16.23331,60.51999],[16.27536,60.512],[16.30105,60.48325],[16.40311,60.38152],[16.52066,60.36452],[16.57909,60.3409],[16.58763,60.30408],[16.62838,60.29242],[16.63929,60.23732],[16.72044,60.19991],[16.79744,60.20171],[16.88116,60.24158],[16.865,60.26259],[16.90576,60.28713],[17.10041,60.26871],[17.19953,60.30919],[17.2041,60.42871],[17.30079,60.47114],[17.35078,60.65233],[17.21649,60.69113],[17.34405,60.74783],[17.2374,60.80228],[17.27056,60.8527],[17.16162,60.95259],[17.22053,61.00132],[17.14336,61.03187],[17.15806,61.05691],[17.13232,61.20141],[17.20226,61.23491],[17.23953,61.2978],[17.12015,61.36738],[17.10598,61.41852],[17.17892,61.47788],[17.11303,61.55117],[17.17406,61.60345],[17.22459,61.65824],[17.26942,61.70612],[17.37381,61.68468],[17.4085,61.64785],[17.4699,61.63647],[17.50728,61.72113],[17.41358,61.74014],[17.37984,61.76781],[17.38639,61.8273],[17.31684,61.86399],[17.35914,61.95259],[17.43548,62.0129],[17.4796,62.1474],[17.3284,62.16886],[17.23708,62.1621],[17.1429,62.18448],[17.09242,62.17136],[16.96931,62.1882],[16.90573,62.1831],[16.79474,62.21535],[16.51283,62.24867],[16.2403,62.25363],[16.06014,62.25093],[16.02149,62.27079],[15.62,62.35826],[15.47856,62.35294],[15.32441,62.28903],[15.33445,62.22281],[15.39562,62.20343],[15.41234,62.12839],[15.08331,62.00747],[15.11146,61.96268],[15.10292,61.90885],[15.10364,61.86181],[15.03999,61.88483],[14.89565,61.89002],[14.8728,61.8387],[14.79831,61.90008],[14.72883,61.87985],[14.68992,61.91238],[14.52665,61.7916],[14.50071,61.63019],[14.65763,61.60127],[14.68411,61.54763],[14.64765,61.50055],[14.7484,61.51206],[14.8026,61.50044],[14.91719,61.50575],[15.06933,61.49282],[15.159,61.60406],[15.23018,61.51242],[15.65433,61.22342],[15.68078,61.13144],[15.75813,61.06018],[15.93412,61.01221],[16.14258,61.00072],[16.2402,60.87837],[16.40095,60.78771]]]}},{"type":"Feature","properties":{"code":"22","name":"Västernorrlands län"},"geometry":{"type":"Polygon","coordinates":[[[16.2403,62.25363],[16.51283,62.24867],[16.79474,62.21535],[16.90573,62.1831],[16.96931,62.1882],[17.09242,62.17136],[17.1429,62.18448],[17.23708,62.1621],[17.3284,62.16886],[17.4796,62.1474],[17.52381,62.19773],[17.61204,62.20635],[17.64194,62.25157],[17.49266,62.27245],[17.4143,62.33393],[17.43411,62.37257],[17.51139,62.38201],[17.49322,62.46131],[17.38951,62.48082],[17.38865,62.5075],[17.47707,62.52231],[17.5486,62.45038],[17.69599,62.43325],[17.67628,62.48182],[17.74868,62.51146],[17.8461,62.48484],[17.90639,62.56069],[18.06256,62.61532],[17.97618,62.65222],[18.0481,62.67815],[18.15701,62.7542],[18.02109,62.75094],[18.00767,62.7858],[18.13532,62.77209],[18.27669,62.83671],[18.21863,62.86447],[18.26936,62.88453],[18.3826,62.84373],[18.48971,62.92157],[18.54225,62.99059],[18.37899,63.00413],[18.40134,63.03347],[18.48589,63.03469],[18.50124,63.08152],[18.60796,63.17333],[18.71913,63.16888],[18.93577,63.23118],[19.01809,63.20313],[19.09903,63.24622],[19.11438,63.3289],[19.22824,63.34029],[19.27815,63.4793],[19.17737,63.56659],[19.18125,63.60822],[18.96388,63.76841],[18.90263,63.80205],[18.80037,63.79673],[18.75091,63.8258],[18.63245,63.83974],[18.4878,63.84994],[18.42459,63.92532],[18.47312,63.96744],[18.38177,64.00834],[17.70746,63.89329],[17.26058,63.92981],[16.84507,63.96791],[16.72412,64.02686],[16.5878,63.89382],[16.57465,63.82206],[16.61342,63.71836],[16.37128,63.67216],[16.30256,63.68864],[16.25129,63.66608],[16.09762,63.69975],[15.98837,63.65847],[15.87818,63.68777],[15.79702,63.67386],[15.99099,63.56417],[15.97249,63.51626],[15.98329,63.4469],[16.05543,63.45934],[16.13521,63.44056],[16.12634,63.37946],[16.60194,63.18425],[17.01187,62.95425],[16.66046,62.93246],[16.47262,62.82197],[16.39754,62.77554],[16.36806,62.70776],[16.25288,62.72397],[16.12809,62.70017],[15.96339,62.71826],[15.59541,62.63461],[15.25607,62.61197],[15.14123,62.5742],[15.07775,62.60439],[14.91639,62.61326],[14.79478,62.60146],[14.80096,62.54153],[14.8352,62.46766],[14.78034,62.46658],[14.80545,62.41602],[14.86864,62.40825],[14.94708,62.32501],[15.15901,62.26774],[15.27312,62.30729],[15.32441,62.28903],[15.47856,62.35294],[15.62,62.35826],[16.02149,62.27079],[16.06014,62.25093],[16.2403,62.25363]]]}},{"type":"Feature","properties":{"code":"23","name":"Jämtlands län"},"geometry":{"type":"Polygon","coordinates":[[[16.47262,62.82197],[16.66046,62.93246],[17.01187,62.95425],[16.60194,63.18425],[16.12634,63.37946],[16.13521,63.44056],[16.05543,63.45934],[15.98329,63.4469],[15.97249,63.51626],[15.99099,63.56417],[15.79702,63.67386],[15.87818,63.68777],[15.98837,63.65847],[16.09762,63.69975],[16.25129,63.66608],[16.30256,63.68864],[16.37128,63.67216],[16.61342,63.71836],[16.57465,63.82206],[16.5878,63.89382],[16.72412,64.02686],[16.20574,64.28439],[16.03289,64.27716],[16.02837,64.34982],[15.75769,64.42871],[15.74953,64.49065],[15.70297,64.55083],[15.62668,64.53286],[15.63955,64.45625],[15.57293,64.45768],[15.54278,64.5333],[15.42405,64.57693],[15.42231,64.60234],[15.36131,64.59435],[15.33498,64.6227],[15.26423,64.64224],[15.33272,64.66258],[15.23156,64.72871],[15.04645,64.76594],[15.03144,64.82445],[14.9502,64.87317],[14.86568,64.87501],[14.78646,64.91632],[14.79137,64.95405],[14.7202,64.98894],[14.67424,65.01675],[14.62055,65.02438],[14.33014,65.13104],[14.21061,65.06224],[13.66285,64.58978],[13.91574,64.51392],[14.07842,64.49159],[14.12362,64.4682],[14.1298,64.40599],[14.16233,64.20139],[13.96233,64.01419],[13.70608,64.04896],[13.28098,64.08653],[13.17971,64.09587],[12.8715,64.04969],[12.65775,63.97136],[12.36346,63.75272],[12.29706,63.7149],[12.27294,63.65973],[12.13296,63.5842],[12.19792,63.47086],[11.96219,63.26811],[12.1961,62.9956],[12.07434,62.90339],[12.1301,62.75129],[12.05081,62.61598],[12.30215,62.26155],[12.61676,62.22158],[12.79561,62.23035],[12.94047,62.14632],[13.03841,62.08534],[13.15938,62.02707],[13.29574,62.06189],[13.32274,62.01764],[13.37135,62.01045],[13.20921,61.93516],[13.41605,61.82664],[13.51449,61.73636],[13.50663,61.69156],[13.5647,61.65505],[13.61309,61.67123],[13.89014,61.65115],[13.98311,61.63467],[14.20141,61.63263],[14.35678,61.61317],[14.41477,61.58619],[14.50071,61.63019],[14.52665,61.7916],[14.68992,61.91238],[14.72883,61.87985],[14.79831,61.90008],[14.8728,61.8387],[14.89565,61.89002],[15.03999,61.88483],[15.10364,61.86181],[15.10292,61.90885],[15.11146,61.96268],[15.08331,62.00747],[15.41234,62.12839],[15.39562,62.20343],[15.33445,62.22281],[15.32441,62.28903],[15.27312,62.30729],[15.15901,62.26774],[14.94708,62.32501],[14.86864,62.40825],[14.80545,62.41602],[14.78034,62.46658],[14.8352,62.46766],[14.80096,62.54153],[14.79478,62.60146],[14.91639,62.61326],[15.07775,62.60439],[15.14123,62.5742],[15.25607,62.61197],[15.59541,62.63461],[15.96339,62.71826],[16.12809,62.70017],[16.25288,62.72397],[16.36806,62.70776],[16.39754,62.77554],[16.47262,62.82197]],[[14.59179,63.21942],[14.47291,63.22457],[14.45915,63.19805],[14.52575,63.17352],[14.57521,63.16235],[14.51632,63.14864],[14.44166,63.13559],[14.45695,63.07715],[14.48783,63.00538],[14.52558,62.89898],[14.48119,62.82144],[14.41778,62.83864],[14.35847,62.9134],[14.42354,62.92147],[14.42275,62.99193],[14.36905,63.06946],[14.34618,63.11798],[14.2494,63.15089],[14.12969,63.17023],[14.04838,63.20237],[14.14893,63.20555],[14.00616,63.32376],[14.17288,63.30207],[14.30826,63.27845],[14.41214,63.23979],[14.47834,63.24961],[14.59179,63.21942]]]}},{"type":"Feature","properties":{"code":"24","name":"Västerbottens län"},"geometry":{"type":"Polygon","coordinates":[[[19.74737,63.54297],[19.91002,63.6261],[19.99488,63.62287],[20.01486,63.67057],[20.11751,63.66036],[20.28643,63.66101],[20.31202,63.69179],[20.39778,63.69009],[20.42927,63.76243],[20.51471,63.80642],[20.66294,63.81394],[20.73952,63.87081],[20.82234,63.94667],[20.91396,64.05593],[20.95781,64.15102],[21.07943,64.21371],[21.22442,64.28587],[21.43586,64.35079],[21.56835,64.43977],[21.56848,64.47463],[21.48681,64.47278],[21.45036,64.55493],[21.3653,64.59917],[21.25149,64.61101],[21.19154,64.6639],[21.24291,64.69058],[21.25337,64.77401],[21.07025,64.78616],[21.01622,64.84391],[21.13027,64.83049],[21.26712,64.89929],[21.23646,64.95146],[21.3573,64.96847],[21.50134,65.08057],[21.31229,65.13191],[21.29212,65.17032],[20.75503,65.21376],[19.88102,65.39442],[19.65374,65.21437],[19.59881,65.19108],[19.41359,65.15004],[19.33442,65.18864],[19.2533,65.21274],[19.25025,65.23667],[19.28518,65.25786],[19.08936,65.32106],[19.0441,65.31696],[19.04082,65.34088],[18.94338,65.35863],[18.8522,65.38133],[18.82253,65.40523],[18.76653,65.41816],[18.75024,65.44294],[18.70123,65.45173],[18.57978,65.45444],[18.51417,65.48792],[18.42644,65.51009],[18.29354,65.52542],[18.23065,65.54827],[18.18005,65.59214],[18.07304,65.60741],[17.79296,65.6466],[17.66098,65.67095],[16.77885,66.05312],[16.57871,66.05462],[15.82231,66.30024],[15.46467,66.35449],[15.48304,66.2922],[15.0375,66.15238],[14.98019,66.14934],[14.53452,66.13828],[14.6385,65.82003],[14.5434,65.69921],[14.50197,65.4577],[14.50003,65.31454],[14.371,65.26003],[14.33014,65.13104],[14.62055,65.02438],[14.67424,65.01675],[14.7202,64.98894],[14.79137,64.95405],[14.78646,64.91632],[14.86568,64.87501],[14.9502,64.87317],[15.03144,64.82445],[15.04645,64.76594],[15.23156,64.72871],[15.33272,64.66258],[15.26423,64.64224],[15.33498,64.6227],[15.36131,64.59435],[15.42231,64.60234],[15.42405,64.57693],[15.54278,64.5333],[15.57293,64.45768],[15.63955,64.45625],[15.62668,64.53286],[15.70297,64.55083],[15.74953,64.49065],[15.75769,64.42871],[16.02837,64.34982],[16.03289,64.27716],[16.20574,64.28439],[16.72412,64.02686],[16.84507,63.96791],[17.26058,63.92981],[17.70746,63.89329],[18.38177,64.00834],[18.47312,63.96744],[18.42459,63.92532],[18.4878,63.84994],[18.63245,63.83974],[18.75091,63.8258],[18.80037,63.79673],[18.90263,63.80205],[18.96388,63.76841],[19.18125,63.60822],[19.17737,63.56659],[19.27815,63.4793],[19.38664,63.46487],[19.47486,63.48174],[19.41415,63.54483],[19.46252,63.57392],[19.57712,63.523],[19.66333,63.44318],[19.74663,63.46759],[19.71533,63.5212],[19.74737,63.54297]]]}},{"type":"Feature","properties":{"code":"25","name":"Norrbottens län"},"geometry":{"type":"Polygon","coordinates":[[[18.18005,65.59214],[18.23065,65.54827],[18.29354,65.52542],[18.42644,65.51009],[18.51417,65.48792],[18.57978,65.45444],[18.70123,65.45173],[18.75024,65.44294],[18.76653,65.41816],[18.82253,65.40523],[18.8522,65.38133],[18.94338,65.35863],[19.04082,65.34088],[19.0441,65.31696],[19.08936,65.32106],[19.28518,65.25786],[19.25025,65.23667],[19.2533,65.21274],[19.33442,65.18864],[19.41359,65.15004],[19.59881,65.19108],[19.65374,65.21437],[19.88102,65.39442],[20.75503,65.21376],[21.29212,65.17032],[21.31229,65.13191],[21.50134,65.08057],[21.57707,65.14729],[21.54302,65.24387],[21.63454,65.26885],[21.65404,65.29832],[21.43525,65.36885],[21.4841,65.3958],[21.63514,65.41563],[21.79705,65.40499],[21.90989,65.42122],[21.98421,65.46721],[21.86223,65.52958],[22.02944,65.52745],[22.13887,65.52489],[22.1436,65.56674],[22.20195,65.57613],[22.32412,65.55572],[22.37306,65.56408],[22.3222,65.60924],[22.30563,65.66042],[22.29287,65.71862],[22.29625,65.79004],[22.33623,65.85444],[22.43963,65.87072],[22.51348,65.8179],[22.50671,65.78171],[22.61919,65.77983],[22.70507,65.72819],[22.77756,65.71397],[22.77842,65.74706],[22.68633,65.7981],[22.66687,65.8828],[22.70146,65.89613],[22.78224,65.87196],[22.83383,65.79706],[23.0142,65.75955],[23.11059,65.71704],[23.17336,65.79393],[23.22056,65.8207],[23.28448,65.80707],[23.4302,65.77979],[23.48802,65.8239],[23.5954,65.7978],[23.66643,65.80607],[23.68656,65.83176],[23.75557,65.82664],[23.83931,65.7941],[24.14957,65.80378],[24.04165,65.96021],[24.02102,66.02153],[23.94667,66.08462],[23.95333,66.10984],[23.92771,66.12724],[23.93873,66.15941],[23.86166,66.16534],[23.72901,66.18974],[23.63382,66.31746],[23.69656,66.40368],[23.64649,66.44186],[23.65406,66.46885],[23.72811,66.48373],[23.73909,66.51593],[23.81877,66.52469],[23.82,66.55601],[23.88907,66.58429],[23.89072,66.65256],[23.91734,66.68691],[23.91697,66.7665],[23.9349,66.79432],[23.99437,66.78472],[24.01362,66.82166],[23.98092,66.85821],[23.88957,66.91347],[23.88772,66.95435],[23.83116,66.96914],[23.82244,66.99957],[23.77018,67.00651],[23.68342,67.05558],[23.67787,67.10601],[23.57588,67.17676],[23.60609,67.20899],[23.58017,67.23548],[23.61268,67.2786],[23.73994,67.29047],[23.79317,67.34269],[23.74581,67.35093],[23.74936,67.39312],[23.78574,67.42663],[23.72355,67.45658],[23.68496,67.44177],[23.54088,67.47201],[23.50692,67.45673],[23.41469,67.49304],[23.4939,67.54108],[23.46864,67.56929],[23.5154,67.56678],[23.55623,67.62949],[23.48272,67.68806],[23.5062,67.79119],[23.48755,67.82986],[23.53571,67.89562],[23.65476,67.91231],[23.64444,67.97058],[23.56094,67.9783],[23.54225,68.01698],[23.48067,68.02078],[23.46888,68.04772],[23.39672,68.0506],[23.33996,68.12962],[23.28038,68.15959],[23.18091,68.14389],[23.14526,68.17289],[23.16089,68.21209],[23.16372,68.24691],[23.0844,68.2779],[23.07772,68.31355],[22.97345,68.33743],[22.94041,68.3403],[22.83588,68.36411],[22.84325,68.39112],[22.7931,68.40649],[22.76294,68.39065],[22.66134,68.41957],[22.62495,68.44109],[22.58869,68.43125],[22.40318,68.47072],[22.35308,68.45464],[22.31699,68.48523],[22.2342,68.48099],[22.12604,68.48431],[22.03007,68.49944],[22.01046,68.52491],[22.01424,68.55586],[21.84906,68.59845],[21.71517,68.60164],[21.72923,68.63359],[21.62455,68.6693],[21.51299,68.68526],[21.43227,68.70245],[21.42381,68.76547],[21.36595,68.77903],[21.30442,68.769],[21.24365,68.82125],[21.022,68.90362],[20.93889,68.90052],[20.86301,68.93715],[20.91616,68.95895],[20.94187,68.97723],[20.88215,68.98887],[20.80297,69.02935],[20.59352,69.04783],[20.11378,69.02957],[20.32005,68.91134],[20.3421,68.80193],[20.23358,68.67414],[20.08269,68.59676],[19.95187,68.55633],[20.24463,68.49605],[19.91303,68.36353],[18.98045,68.50425],[18.60131,68.489],[18.3993,68.5591],[18.11151,68.51375],[18.08997,68.38228],[18.16607,68.16887],[17.94531,67.97791],[17.91729,67.94498],[17.65847,68.02298],[17.29918,68.09669],[17.2007,68.02926],[16.77009,67.91331],[16.7114,67.89264],[16.52948,67.60441],[16.41646,67.52293],[16.19869,67.50793],[16.11391,67.42136],[16.38986,67.23263],[16.42461,67.16874],[16.37538,67.01962],[16.10592,66.92937],[15.99776,66.87834],[15.63429,66.5983],[15.38848,66.48441],[15.46467,66.35449],[15.82231,66.30024],[16.57871,66.05462],[16.77885,66.05312],[17.66098,65.67095],[17.79296,65.6466],[18.07304,65.60741],[18.18005,65.59214]],[[18.40718,65.69754],[18.50833,65.66302],[18.49784,65.63641],[18.27028,65.67062],[18.2093,65.68787],[18.1171,65.67735],[18.02405,65.805],[17.87328,65.89971],[17.82109,65.84292],[17.73673,65.8426],[17.71988,65.90537],[17.75972,65.94112],[17.7504,65.97619],[17.64473,66.04062],[17.7652,66.06432],[17.85056,66.07735],[17.73813,66.12408],[17.61603,66.18216],[17.46103,66.21295],[17.45066,66.25895],[17.31907,66.33178],[17.06183,66.39686],[17.08955,66.42436],[17.3217,66.377],[17.42838,66.32193],[17.54976,66.27137],[17.65683,66.21971],[17.81467,66.1849],[17.86859,66.12532],[17.96161,66.08695],[18.05292,66.10314],[18.10898,66.07422],[18.07321,66.051],[17.92664,66.04184],[17.96924,65.97743],[17.92236,65.92396],[18.17272,65.78838],[18.30078,65.7875],[18.37664,65.76624],[18.35565,65.72393],[18.40718,65.69754]]]}}]}
